UBI,UBID,GBA,BLDGS,Address,Owner,City,State,Zip,Property Type,AYB_YearBuilt
10107/71db4,SRIY2TX6+2NR-SRIY2TX6+DS6-SRIY2TX6+F5Q,"264,949",1,120243 E True Lane,MileStone Community Builders,EnergyTown,Illinois,10107-7915,COMMERCIAL,1825
10107/c6596,HJYLZ82Y+TZC-HJYLZ82Y+WTP-HJYLZ82Y+TEW,"322,701",1,95373 E Peach Avenue,Pangea Properties,EnergyTown,Illinois,10107-1544,COMMERCIAL,1962
Not Available,I10KDH6N+SZK-I10KDH6N+O33-I10KDH6N+CO4,"139,835",1,95864 SW Cottonwood Court,Matt Martin Real Estate Management,EnergyTown,Illinois,10106-7162,RESIDENTIAL-MULTI FAMILY,1965
not applicable,ES3V041O+GTU-ES3V041O+SHD-ES3V041O+3KQ,"194,395",1,155371 W Cherry Loop,Celerity Ventures,EnergyTown,Illinois,10103-3578,COMMERCIAL,1967
n/a,DIFVA4M0+S50-DIFVA4M0+V1Y-DIFVA4M0+HWB,"67,269",1,180821 S Tyler Lane,Marketplace Homes,EnergyTown,Illinois,10106-8191,RESIDENTIAL-MULTI FAMILY,1965
10104/fa70d,RYETKWOR+BJI-RYETKWOR+6OU-RYETKWOR+3RA,"100,654",1,124217 W Horsechestnut Boulevard,Apartment List,EnergyTown,Illinois,10104-5427,COMMERCIAL,1967
10103/6a6b9,OQHJYJYC+8S8-OQHJYJYC+8YS-OQHJYJYC+KXZ,"296,432",1,155830 SW Garfield Way,Econohomes,EnergyTown,Illinois,10103-5455,RESIDENTIAL-MULTI FAMILY,1965
10101/3b748,ZY340OD4+3R5-ZY340OD4+7IR-ZY340OD4+BRF,"390,302",1,134217 SE Kennedy Lane,PropertyRate,EnergyTown,Illinois,10101-4786,COMMERCIAL CONDO,
10102/b0dbc,4YJ7IWMG+FUH-4YJ7IWMG+81E-4YJ7IWMG+PGM,"373,152",1,92496 E Tangarine Boulevard,Landmark Network,EnergyTown,Illinois,10102-8803,COMMERCIAL,1975
10108/335e9,XHMJ9GCF+3IZ-XHMJ9GCF+GUJ-XHMJ9GCF+9HF,"271,912",1,180702 N Horsechestnut Loop,Memphis Invest,EnergyTown,Illinois,10108-5971,COMMERCIAL,1978
10106/913a0,V2LBLPFP+5CQ-V2LBLPFP+HCX-V2LBLPFP+DVH,"337,844",1,94734 SE Honeylocust Street,ACT Appraisal,EnergyTown,Illinois,10106-4994,CONDO,
10108/9ec27,45J0P3A6+0EN-45J0P3A6+Q8G-45J0P3A6+XCA,"225,829",1,159308 SE Sycamore Court,Innotion Enterprises,EnergyTown,Illinois,10108-8006,HOTELS/MOTELS,1978
10101/f5ad2,KUWGVI77+TUD-KUWGVI77+T2S-KUWGVI77+5OI,"272,997",1,129218 N Palm Highway,The Force Realty,EnergyTown,Illinois,10101-1619,CONDO,
10107/5bff1,L76OPQFT+KJ4-L76OPQFT+D1F-L76OPQFT+NAJ,"379,591",1,44166 S Hoover Alley,PalmerHouse Properties,EnergyTown,Illinois,10107-6822,RESIDENTIAL-MULTI FAMILY,1966
10106/d0285,WYRXKMBK+1MV-WYRXKMBK+CJO-WYRXKMBK+AW7,"86,627",1,48633 NE Papaya Lane,CoesterVMS,EnergyTown,Illinois,10106-8933,RESIDENTIAL-MULTI FAMILY,1957
10104/94bd8,4JUGMZFB+6J9-4JUGMZFB+8JP-4JUGMZFB+HJU,"125,131",1,231069 SW True Way,Hawaii Life,EnergyTown,Illinois,10104-3290,HOTELS/MOTELS,1957
10101/6e866,04ERUQ4Z+EDL-04ERUQ4Z+RG3-04ERUQ4Z+YIJ,"298,654",1,90274 SW Madrone Court,Apex Home Loans,EnergyTown,Illinois,10101-2886,CONDO,
10106/f06b7,KXS31BKB+I56-KXS31BKB+E93-KXS31BKB+2R8,"87,271",1,238539 SE Willow Street,Stress Free Property Management,EnergyTown,Illinois,10106-9457,CONDO,
10105/d237c,JBVKQYJF+3MZ-JBVKQYJF+HGV-JBVKQYJF+1QZ,"256,003",1,80219 SW Mandarin Court,Fairplay Financial,EnergyTown,Illinois,10105-7949,COMMERCIAL,1959
10107/a127a,MHVDGRTK+U45-MHVDGRTK+KE8-MHVDGRTK+YBJ,"181,115",1,119134 SE Lemon Highway,Nationwide Appraisal Network,EnergyTown,Illinois,10107-5333,COMMERCIAL,1986
10101/6fcb5,K8OUFDWX+MBK-K8OUFDWX+LEN-K8OUFDWX+WO7,"292,974",1,232204 SW Taylor Highway,Robert Paul Properties,EnergyTown,Illinois,10101-9602,COMMERCIAL,1983
10109/f6ce2,56B55X6D+M6I-56B55X6D+Z14-56B55X6D+KHN,"177,426",1,67162 SE Incense Lane,Trulia,EnergyTown,Illinois,10109-2252,HOTELS/MOTELS,1985
10103/9dcbf,ND5UK2YN+FNT-ND5UK2YN+YCP-ND5UK2YN+GZO,"333,188",1,214831 SW Cypress Boulevard,The Ruby Group,EnergyTown,Illinois,10103-6843,COMMERCIAL,1986
10102/aa5a9,XN7F9AF1+GKL-XN7F9AF1+J3S-XN7F9AF1+6NT,"344,019",1,179646 SW Date Highway,Valuation Management Group,EnergyTown,Illinois,10102-7607,COMMERCIAL CONDO,
10104/c5be7,F6DMYA9V+OQH-F6DMYA9V+M08-F6DMYA9V+36F,"270,366",1,206055 S Clementine Boulevard,Hipercept,EnergyTown,Illinois,10104-8059,RESIDENTIAL-MULTI FAMILY,2005
10108/cfa5b,CFPN8H88+AGZ-CFPN8H88+BPW-CFPN8H88+9XF,"186,905",1,197616 NE Garfield Avenue,Accurate Group,EnergyTown,Illinois,10108-4184,CONDO,
10109/a4dc5,DG3SUELX+4S9-DG3SUELX+4F8-DG3SUELX+F9Z,"161,964",1,197709 E Pineapple Highway,Nest Realty,EnergyTown,Illinois,10109-2482,CONDO,
10105/fd160,PCNGAFSF+ZRS-PCNGAFSF+T6E-PCNGAFSF+O4O,"104,349",1,9773 N Citron Loop,JWB Real Estate Companies,EnergyTown,Illinois,10105-4684,COMMERCIAL,1991
10105/e565e,DY50FLFH+7NJ-DY50FLFH+FU3-DY50FLFH+4FH,249090sf,1,28660 E Polk Road,Real Property Management,EnergyTown,Illinois,10105-1441,RESIDENTIAL-MULTI FAMILY,1959
10101/51bc2,2BTYAV2B+AWS-2BTYAV2B+HDI-2BTYAV2B+IE8,"319,123",1,179923 NE Washington Avenue,Distinctive Properties,EnergyTown,Illinois,10101-5472,RESIDENTIAL-MULTI FAMILY,1962
10105/ce1a8,TJ29WQSO+YLU-TJ29WQSO+QII-TJ29WQSO+NM4,"258,869",1,108393 N Grapefruit Court,Clear Title Agency of AZ,EnergyTown,Illinois,10105-8589,HOTELS/MOTELS,1950
10105/3f900,YJUXC47R+54I-YJUXC47R+O6M-YJUXC47R+WPB,"224,362",1,131175 SW Chestnut Road,Trust Field Services,EnergyTown,Illinois,10105-6695,COMMERCIAL CONDO,
10102/a5c26,WOO7WJVJ+CAI-WOO7WJVJ+K7F-WOO7WJVJ+VJ0,"191,472",1,170525 E Pine Way,GRS Group,EnergyTown,Illinois,10102-8531,RESIDENTIAL-MULTI FAMILY,1959
10101/f67f2,FFVUWSQF+UTU-FFVUWSQF+VNS-FFVUWSQF+RDX,"327,974",1,192896 SE Peach Court,Renters Warehouse,EnergyTown,Illinois,10101-5570,CONDO,
10101/99db8,7KUGMTXH+A4G-7KUGMTXH+G0X-7KUGMTXH+MTW,"195,267",1,194087 SE Fillmore Street,Reliant Realty,EnergyTown,Illinois,10101-1978,HOTELS/MOTELS,1960
10103/da53a,W9N7WR57+2K0-W9N7WR57+B2W-W9N7WR57+QC5,"310,018",1,73377 W Polk Way,Meridian Pacific Properties,EnergyTown,Illinois,10103-8731,HOTELS/MOTELS,1973
10101/7a520,UXNZ2WA0+2UW-UXNZ2WA0+SKV-UXNZ2WA0+HYX,"104,609",1,130834 N Dogwood Boulevard,Guaranteed Rate,EnergyTown,Illinois,10101-2696,RESIDENTIAL-MULTI FAMILY,1957
10102/72f1a,PSJBFXH9+GZU-PSJBFXH9+D0S-PSJBFXH9+6G4,"64,703",1,206661 S Myrtle Boulevard,JMA Properties,EnergyTown,Illinois,10102-9427,CONDO,
10101/5c8a6,M2YIFY7U+VTD-M2YIFY7U+F3E-M2YIFY7U+3ZF,"386,463",1,142141 NW Maple Alley,NTP Wireless,EnergyTown,Illinois,10101-4479,COMMERCIAL,1993
10109/285ec,YBMR3L0L+TTT-YBMR3L0L+7P8-YBMR3L0L+DO7,"311,855",1,152387 W McKinley Alley,Teles Properties,EnergyTown,Illinois,10109-4563,RESIDENTIAL-MULTI FAMILY,1961
10104/539ad,JQTJLDU8+J5S-JQTJLDU8+3K1-JQTJLDU8+R8X,"318,926",1,209658 NE Chinkapin Alley,Kinder Reese,EnergyTown,Illinois,10104-6703,RESIDENTIAL-MULTI FAMILY,1956
10105/b78f0,9ZF3LKIB+C2B-9ZF3LKIB+8BZ-9ZF3LKIB+QX0,"213,153",1,59788 NW Pineapple Alley,Cal-American Homes,EnergyTown,Illinois,10105-9902,RESIDENTIAL-MULTI FAMILY,1969
10107/fa39d,37211029+AGE-37211029+N72-37211029+JY8,"63,573",1,3822 SE Cantaloupe Avenue,ePropertySites.com,EnergyTown,Illinois,10107-4333,CONDO,
10110/4bdaf,P0TT3HN4+ZH9-P0TT3HN4+1O7-P0TT3HN4+2T8,"315,077",1,23255 NW Buchanan Highway,NathanTabor.com,EnergyTown,Illinois,10110-7042,COMMERCIAL,1986
10105/1c351,42YHZLS3+GEE-42YHZLS3+8UT-42YHZLS3+9K8,"322,506",1,148420 S Pineapple Boulevard,Urban Lending Solutions,EnergyTown,Illinois,10105-4400,COMMERCIAL,1981
10110/4df66,CEQL7DY4+H5R-CEQL7DY4+VKS-CEQL7DY4+6HZ,"156,848",1,158538 S Monroe Court,Keller Williams Capital Properties,EnergyTown,Illinois,10110-4120,HOTELS/MOTELS,0
10107/98676,P7GVWCI5+8HZ-P7GVWCI5+C3M-P7GVWCI5+PWP,"170,850",1,70927 NE Papaya Street,Real Capital Markets,EnergyTown,Illinois,10107-9016,COMMERCIAL CONDO,
10104/c2398,RDO17R82+LUZ-RDO17R82+UDD-RDO17R82+6JK,"386,642",1,191122 SE Tanoak Street,DLP Realty,EnergyTown,Illinois,10104-6412,COMMERCIAL CONDO,
10107/757a5,WHGFB748+55S-WHGFB748+0FG-WHGFB748+LRC,"355,043",1,235480 SW Tangarine Boulevard,World Wide Land Transfer,EnergyTown,Illinois,10107-5527,COMMERCIAL,1983
10104/c73d9,4JBH33FS+F0D-4JBH33FS+DO0-4JBH33FS+DBC,"340,751",1,73707 E Mahogany Street,HousingWire,EnergyTown,Illinois,10104-8560,HOTELS/MOTELS,1984
10106/1775c,KX8BYMKL+N82-KX8BYMKL+PMC-KX8BYMKL+0ST,"319,967",1,191551 W Roosevelt Boulevard,Nationwide Title Clearing,EnergyTown,Illinois,10106-1246,CONDO,
10106/4710a,2WYRAH6Y+E1U-2WYRAH6Y+GFK-2WYRAH6Y+9MG,"94,169",1,165559 W Hoover Avenue,Platinum Realty,EnergyTown,Illinois,10106-1985,COMMERCIAL,1925
10107/d0974,OYSM5IFX+03B-OYSM5IFX+O23-OYSM5IFX+BUY,"168,445",1,158986 W Truman Lane,US Appraisal Group,EnergyTown,Illinois,10107-1828,CONDO,
10109/975d0,Z58I32QE+TBT-Z58I32QE+KW1-Z58I32QE+WJN,"303,458",1,63942 N Buckthorn Road,The Menkiti Group,EnergyTown,Illinois,10109-6074,COMMERCIAL,2002
10107/5407a,D24X4OLO+ANH-D24X4OLO+PKP-D24X4OLO+DPA,"347,027",1,131334 W Poplar Alley,Elite Pacific Properties,EnergyTown,Illinois,10107-4433,COMMERCIAL,1973
10108/6c338,EU77RODG+NWK-EU77RODG+M17-EU77RODG+1JC,"195,193",1,66867 W Tangarine Highway,Samuel Scott Financial Group,EnergyTown,Illinois,10108-1981,COMMERCIAL,1994
10102/8600f,0WDPW5OD+ZE5-0WDPW5OD+MCJ-0WDPW5OD+UPK,"219,626",1,234002 SW Wilson Lane,Professinal Home Buyers,EnergyTown,Illinois,10102-1972,COMMERCIAL,2001
10106/38a23,R4HSLCY5+5X3-R4HSLCY5+VCU-R4HSLCY5+TGU,"94,517",1,3154 SE Pears Street,Maximum One Realty Greater Atlanta,EnergyTown,Illinois,10106-4952,COMMERCIAL,2003
10107/22648,PJZNX715+PQ7-PJZNX715+9KX-PJZNX715+U7D,"64,006",1,6185 NW Wilson Road,Streetsense,EnergyTown,Illinois,10107-3722,RESIDENTIAL-MULTI FAMILY,1995
10110/9e558,V5P9S6JC+ILX-V5P9S6JC+M5M-V5P9S6JC+ZLW,"346,512",1,209412 SE Taft Lane,Boulder Creek Builders,EnergyTown,Illinois,10110-8769,COMMERCIAL,1922
10110/e438f,H4N9BHSJ+6F9-H4N9BHSJ+VPW-H4N9BHSJ+E0D,"265,462",1,142735 N Clinton Alley,ATG Title,EnergyTown,Illinois,10110-6459,HOTELS/MOTELS,1986
10101/230e0,SY019G49+J4N-SY019G49+0TG-SY019G49+XUI,"59,341",1,241773 W Apples Avenue,LGI Development,EnergyTown,Illinois,10101-6175,COMMERCIAL,1982
10106/88d21,M7LTUEY7+47V-M7LTUEY7+OCD-M7LTUEY7+EVP,"178,928",1,242511 S Palm Lane,Tim O'Brien Homes,EnergyTown,Illinois,10106-7084,CONDO,
10107/4692c,MHU84LMT+NB4-MHU84LMT+SNC-MHU84LMT+II2,"287,262",1,196013 S Jackson Highway,McGeough Lamacchia Realty,EnergyTown,Illinois,10107-2859,CONDO,
10108/5df28,RQPAR1PK+O4L-RQPAR1PK+72J-RQPAR1PK+K4Y,"77,033",1,78018 SE Citron Alley,Bean Group,EnergyTown,Illinois,10108-7872,HOTELS/MOTELS,1964
10109/dfab7,VZD73AYH+1CY-VZD73AYH+6KX-VZD73AYH+RKB,"391,949",1,131135 W Spruce Way,Gorilla Capital,EnergyTown,Illinois,10109-8250,COMMERCIAL,2011
10104/53c6f,KXL4FSO1+XGN-KXL4FSO1+CRS-KXL4FSO1+6GH,"230,213",1,82667 E Ash Street,1st Equity,EnergyTown,Illinois,10104-5512,COMMERCIAL CONDO,
10102/e3545,QVDSYF3E+CK9-QVDSYF3E+FPW-QVDSYF3E+5SJ,"142,577",1,183943 S Horsechestnut Highway,Realty ONE Group,EnergyTown,Illinois,10102-1646,COMMERCIAL,1939
10105/10bcf,4O2MK9IY+G4H-4O2MK9IY+BGN-4O2MK9IY+AS0,"289,605",10,232960 NW Filbert Road,Asset Realty Group,EnergyTown,Illinois,10105-6863,COMMERCIAL,1900
10109/66f8f,8QFF46OY+H6K-8QFF46OY+A9F-8QFF46OY+SS9,"105,536",1,98479 S Myrtle Loop,Movoto,EnergyTown,Illinois,10109-2021,COMMERCIAL,2003
10107/ff74d,QUSANZZO+4EO-QUSANZZO+IEX-QUSANZZO+CT3,"372,631",1,149686 W Apricots Road,American Eagle Mortgage,EnergyTown,Illinois,10107-9705,COMMERCIAL,1975
10101/2e66d,6UKQNCOZ+YOX-6UKQNCOZ+IZV-6UKQNCOZ+2D6,"234,831",1,243909 SW Taft Boulevard,@Properties,EnergyTown,Illinois,10101-9544,COMMERCIAL,1965
10101/1f7f1,VQS2LIFM+109-VQS2LIFM+1KT-VQS2LIFM+PTA,"51,688",3,90256 S Cantaloupe Court,Conservice,EnergyTown,Illinois,10101-4370,COMMERCIAL,1910
10103/16a90,SNZQYJ50+RS2-SNZQYJ50+TEI-SNZQYJ50+1DT,"351,585",1,43598 W Tanoak Boulevard,HomeSmart,EnergyTown,Illinois,10103-4839,HOTELS/MOTELS,1927
10105/4ef5e,UM087VBW+1OD-UM087VBW+0IW-UM087VBW+9Z7,"67,334",1,75520 E Buckthorn Boulevard,MG Properties Group,EnergyTown,Illinois,10105-7397,HOTELS/MOTELS,1965
10109/50d5a,N1OGF5F8+M1U-N1OGF5F8+N0L-N1OGF5F8+96H,"398,192",1,90646 N Cypress Boulevard,Pacific Union International,EnergyTown,Illinois,10109-5848,RESIDENTIAL-MULTI FAMILY,1951
10103/f1a07,9QYQSE6H+4SU-9QYQSE6H+NHB-9QYQSE6H+K8W,"114,094",1,68425 NE Cleveland Highway,Sperry Van Ness International,EnergyTown,Illinois,10103-7996,CONDO,
10108/2a65c,SBXJN4KO+NZW-SBXJN4KO+KFI-SBXJN4KO+D01,"388,983",1,98181 N Avocado Loop,Asset Plus Companies,EnergyTown,Illinois,10108-9910,RESIDENTIAL-MULTI FAMILY,1975
10105/d53e4,469XIZ31+OQ5-469XIZ31+9EG-469XIZ31+WD0,"187,821",1,144346 E Roosevelt Boulevard,Prudential Americana Group Realtors,EnergyTown,Illinois,10105-9915,COMMERCIAL,1941
10107/d18cc,ZGJ5H7KA+O7Q-ZGJ5H7KA+I4I-ZGJ5H7KA+DAJ,"64,123",1,235615 W Grapefruit Way,ISGN,EnergyTown,Illinois,10107-2802,COMMERCIAL,1985
10108/4e113,CVAWBBKU+8I3-CVAWBBKU+DRU-CVAWBBKU+IJJ,"86,778",1,172060 SE Holly Court,Kidder Mathews,EnergyTown,Illinois,10108-6192,COMMERCIAL,1989
10107/30b57,ZDO7B9FH+JEZ-ZDO7B9FH+BG6-ZDO7B9FH+MBN,"114,393",1,145829 NW Yew Boulevard,Levrose Commercial Real Estate,EnergyTown,Illinois,10107-6906,COMMERCIAL,1980
10107/4c3d7,BBS3NZT6+NZV-BBS3NZT6+T1T-BBS3NZT6+8UB,240854sf,1,87210 NE Peach Street,Pro Teck Valuation Services,EnergyTown,Illinois,10107-9721,CONDO,
10109/447c3,YS7MGEIM+QGX-YS7MGEIM+TG6-YS7MGEIM+L9O,"112,116",1,200072 W Orange Court,The Mount Vernon Company,EnergyTown,Illinois,10109-4168,CONDO,
10105/9bfac,72TNTIZR+E3H-72TNTIZR+717-72TNTIZR+WV2,"157,413",1,174224 SE Eisenhower Lane,Select Office Suites,EnergyTown,Illinois,10105-3144,CONDO,
10107/b8a5f,D4L96IJM+6D2-D4L96IJM+3MV-D4L96IJM+FVG,"355,932",1,26713 E Van Buren Highway,Schmidt Real Estate,EnergyTown,Illinois,10107-3722,HOTELS/MOTELS,1989
10102/f69dc,GT9FJ97I+D6T-GT9FJ97I+LDT-GT9FJ97I+XF8,"205,231",1,238533 W Pine Road,Oakbrook,EnergyTown,Illinois,10102-2584,RESIDENTIAL-MULTI FAMILY,1965
10107/dc778,TZO1EXH2+99D-TZO1EXH2+Y5L-TZO1EXH2+LLV,"61,650",1,51538 E Juniper Lane,ERA Sunrise Realty,EnergyTown,Illinois,10107-5279,HOTELS/MOTELS,1980
10103/5a815,HDSZVANK+OUK-HDSZVANK+ER7-HDSZVANK+6YF,"383,246",1,117582 N Ash Alley,Keller Williams Realty,EnergyTown,Illinois,10103-1176,COMMERCIAL,1969
10109/e6987,3200F6A8+2FU-3200F6A8+YS1-3200F6A8+HSN,"167,971",1,200564 SW Catalpa Road,CWS Corporate Leasing,EnergyTown,Illinois,10109-9885,COMMERCIAL,1978
10106/3b0d7,J4NINAPX+FXP-J4NINAPX+HRJ-J4NINAPX+32G,"67,425",1,236444 W Larch Avenue,Occidental Management,EnergyTown,Illinois,10106-1640,RESIDENTIAL-MULTI FAMILY,1964
10103/72037,65KOE1KX+2DM-65KOE1KX+XRT-65KOE1KX+R71,"154,238",1,36238 N Catalpa Loop,Morris Hardwick Schneider/Landcastle Title,EnergyTown,Illinois,10103-8588,COMMERCIAL,1966
10106/c3dbe,1DANDZWW+H14-1DANDZWW+I97-1DANDZWW+KAG,"163,712",1,164955 NE Catalpa Road,Capital Title of Texas,EnergyTown,Illinois,10106-1996,COMMERCIAL,1970
10105/43c5d,OQYQKQKF+NXB-OQYQKQKF+F70-OQYQKQKF+JR2,"381,949",1,77263 E Cottonwood Lane,American Reporting,EnergyTown,Illinois,10105-3531,COMMERCIAL,1981
10103/25a9c,LZIDDTSM+AJM-LZIDDTSM+NSU-LZIDDTSM+ZDQ,"321,167",1,181938 NW Honeydew Boulevard,Real Freedom,EnergyTown,Illinois,10103-9525,RESIDENTIAL-MULTI FAMILY,1990
10108/ed3ed,J17FHW3X+MXA-J17FHW3X+A0W-J17FHW3X+XHA,"87,062",1,35447 E Monroe Road,Temporary Housing Directory,EnergyTown,Illinois,10108-5765,COMMERCIAL,1981
10107/57cad,3PP3TNWT+P2X-3PP3TNWT+56Z-3PP3TNWT+DFK,"219,476",1,84472 N Catalpa Highway,MileStone Community Builders,EnergyTown,Illinois,10107-5663,CONDO,
10101/34a5f,VR9XF4FC+YZY-VR9XF4FC+RM5-VR9XF4FC+T9Y,"142,331",1,219222 SW Filbert Avenue,Pangea Properties,EnergyTown,Illinois,10101-6331,COMMERCIAL,1997
10110/7fb1a,9HSM9GB3+IN1-9HSM9GB3+LJH-9HSM9GB3+CBH,"197,578",1,71873 W Citron Court,Matt Martin Real Estate Management,EnergyTown,Illinois,10110-2866,COMMERCIAL,1960
10102/89133,C324LOS3+27F-C324LOS3+40T-C324LOS3+YII,"290,809",1,14397 N Grapes Way,Celerity Ventures,EnergyTown,Illinois,10102-6752,COMMERCIAL,1931
10104/208f2,K7HLO608+GNK-K7HLO608+H5D-K7HLO608+27K,"361,111",1,78024 N Filbert Highway,Marketplace Homes,EnergyTown,Illinois,10104-4274,COMMERCIAL,1966
10109/c9e41,3Q965RB4+332-3Q965RB4+H4G-3Q965RB4+B76,"250,344",1,241780 NE Sycamore Highway,Apartment List,EnergyTown,Illinois,10109-8562,COMMERCIAL,1981
10106/ea9cc,GYQQ33DY+F7G-GYQQ33DY+VWK-GYQQ33DY+X4G,"151,085",1,5228 SE Nixon Road,Econohomes,EnergyTown,Illinois,10106-8605,COMMERCIAL,1967
10103/8e1ad,1E6E6B94+PW2-1E6E6B94+7E1-1E6E6B94+9SS,"282,409",1,209824 E California Lane,PropertyRate,EnergyTown,Illinois,10103-3376,COMMERCIAL,1971
10110/ed6b2,U27O1IR8+R19-U27O1IR8+ZIS-U27O1IR8+YXW,"377,064",1,117200 E Melon Loop,Landmark Network,EnergyTown,Illinois,10110-7289,COMMERCIAL,1967
10102/9207d,Z0UK7TNZ+O33-Z0UK7TNZ+MXW-Z0UK7TNZ+0SY,"212,968",1,193649 E Mandarin Alley,Memphis Invest,EnergyTown,Illinois,10102-5899,COMMERCIAL,1975
10106/86a9b,37A78F1J+TV7-37A78F1J+FU1-37A78F1J+3DR,"379,494",1,95549 NE Oak Road,ACT Appraisal,EnergyTown,Illinois,10106-9001,COMMERCIAL,2002
10106/f062c,CNZO4X7T+KK7-CNZO4X7T+7P4-CNZO4X7T+TH6,"240,750",1,86193 SE Plum Court,MileStone Community Builders,EnergyTown,Illinois,10106-6518,COMMERCIAL,1982
10102/802b7,SHV76G2F+GBP-SHV76G2F+DHR-SHV76G2F+Z56,"165,044",3,84265 W Lemon Way,Pangea Properties,EnergyTown,Illinois,10102-7947,COMMERCIAL,1969
10105/8b173,MH98GYN3+MYY-MH98GYN3+DZP-MH98GYN3+9ET,"190,014",1,138016 SW Catalpa Highway,Matt Martin Real Estate Management,EnergyTown,Illinois,10105-9572,RESIDENTIAL-MULTI FAMILY,1927
10107/2eb13,MQLLA62U+WRX-MQLLA62U+KSZ-MQLLA62U+FNL,"284,935",1,11105 SE Clinton Avenue,Celerity Ventures,EnergyTown,Illinois,10107-5905,COMMERCIAL,1987
10106/71444,HJ6UFHWD+LH6-HJ6UFHWD+U6K-HJ6UFHWD+TJ2,"321,155",1,26583 NW Nixon Boulevard,Marketplace Homes,EnergyTown,Illinois,10106-6063,COMMERCIAL,1990
10104/5257a,3TESQPN6+Q4O-3TESQPN6+EHC-3TESQPN6+JM1,"51,764",1,238715 W Plantain Avenue,Apartment List,EnergyTown,Illinois,10104-1820,COMMERCIAL,1975
10105/e5764,5V6Y02PD+VPM-5V6Y02PD+C7T-5V6Y02PD+FHF,"203,845",1,147661 NE Washington Loop,Econohomes,EnergyTown,Illinois,10105-5803,COMMERCIAL,2000
10109/3ff91,1LMJCHFI+MJB-1LMJCHFI+CE5-1LMJCHFI+BWG,"383,773",1,153200 NE Tanoak Loop,PropertyRate,EnergyTown,Illinois,10109-8384,HOTELS/MOTELS,1929
10105/a1207,2FP3FHQB+BCF-2FP3FHQB+IX9-2FP3FHQB+8R2,"237,089",1,144708 SE Orange Lane,Landmark Network,EnergyTown,Illinois,10105-5987,COMMERCIAL,1972
10106/8fa43,6Z1I20QP+OO0-6Z1I20QP+A3J-6Z1I20QP+3OU,"380,406",1,26093 E Hazel Way,Memphis Invest,EnergyTown,Illinois,10106-9778,COMMERCIAL,1951
10102/af70d,YYBZ6HY7+RL5-YYBZ6HY7+BT6-YYBZ6HY7+WPI,"266,908",1,6890 NE Roosevelt Lane,ACT Appraisal,EnergyTown,Illinois,10102-5083,COMMERCIAL,1910
10110/3e66f,5S4UGA3S+1Q8-5S4UGA3S+ZVH-5S4UGA3S+K5O,"322,346",1,47399 NW Cherry Way,Innotion Enterprises,EnergyTown,Illinois,10110-2179,COMMERCIAL,1880
10106/7b8ae,42577P5G+V4C-42577P5G+TBL-42577P5G+5VM,"136,566",1,139213 W Cottonwood Street,The Force Realty,EnergyTown,Illinois,10106-9379,COMMERCIAL,2009
10103/77192,8YHUGRT3+DFO-8YHUGRT3+4LC-8YHUGRT3+I9H,"70,222",1,119270 SW Garfield Way,PalmerHouse Properties,EnergyTown,Illinois,10103-7367,COMMERCIAL,1926
10107/63b18,MOKL3GBC+EHW-MOKL3GBC+4F2-MOKL3GBC+49M,"203,493",1,41978 N Birch Avenue,CoesterVMS,EnergyTown,Illinois,10107-5827,HOTELS/MOTELS,1955
10103/14c96,516C5VWK+3EW-516C5VWK+QMF-516C5VWK+74L,"379,375",3,235016 SW Melon Avenue,Hawaii Life,EnergyTown,Illinois,10103-7236,HOTELS/MOTELS,1955
10101/7100e,7RUHOCJU+U8W-7RUHOCJU+ONQ-7RUHOCJU+ICH,"376,622",1,4378 W Madrone Highway,Apex Home Loans,EnergyTown,Illinois,10101-5570,COMMERCIAL,1941
10106/23c97,OCFO440O+DIS-OCFO440O+MB2-OCFO440O+YZ7,"314,506",1,154343 NE Apricots Alley,Stress Free Property Management,EnergyTown,Illinois,10106-3894,RESIDENTIAL-MULTI FAMILY,1950
10108/a69ae,76U82IT6+WXE-76U82IT6+QYK-76U82IT6+PME,"99,145",1,27353 NE Douglas Highway,Fairplay Financial,EnergyTown,Illinois,10108-7763,COMMERCIAL,1986
10110/ca2b4,W02GGKWZ+U5R-W02GGKWZ+0JW-W02GGKWZ+WZS,"340,088",1,223346 SE Redwood Avenue,Nationwide Appraisal Network,EnergyTown,Illinois,10110-1674,COMMERCIAL,1989
10102/fd96b,1GOQRZQ9+TMA-1GOQRZQ9+OWT-1GOQRZQ9+EG8,"88,133",1,91558 NE Maple Street,Robert Paul Properties,EnergyTown,Illinois,10102-2990,CONDO,
10102/5b193,619UWWYQ+VG6-619UWWYQ+87Y-619UWWYQ+3U9,"112,442",1,203743 NE Pierce Highway,Trulia,EnergyTown,Illinois,10102-8479,COMMERCIAL,1973
10107/6cc7a,39WGHHOT+O55-39WGHHOT+75S-39WGHHOT+OA3,"257,959",1,59502 NW Mahogany Avenue,The Ruby Group,EnergyTown,Illinois,10107-5124,COMMERCIAL,1982
10103/5c099,3ABD0KF3+V0E-3ABD0KF3+VFD-3ABD0KF3+IAU,"170,935",1,198536 W Garfield Road,Valuation Management Group,EnergyTown,Illinois,10103-9796,COMMERCIAL,1964
10104/7ef71,OOFSDAAA+M9W-OOFSDAAA+MT5-OOFSDAAA+NET,"261,765",1,99348 NE Locust Street,Hipercept,EnergyTown,Illinois,10104-2416,COMMERCIAL,0
10101/2b760,0VCZ66OV+VNX-0VCZ66OV+9NB-0VCZ66OV+2SE,"215,255",1,181881 E Myrtle Street,Accurate Group,EnergyTown,Illinois,10101-2717,COMMERCIAL,2009
10102/b874e,0ZD7LAGM+CZ2-0ZD7LAGM+AJP-0ZD7LAGM+VG6,"94,310",1,27214 E McKinley Boulevard,Nest Realty,EnergyTown,Illinois,10102-7954,COMMERCIAL,1978
10110/2591d,O4RD5TD9+A7E-O4RD5TD9+PGT-O4RD5TD9+VFJ,"230,146",1,147589 S Buckthorn Way,JWB Real Estate Companies,EnergyTown,Illinois,10110-1921,COMMERCIAL,1995
10102/bb665,8VN86BYH+YBK-8VN86BYH+CRL-8VN86BYH+XCG,"256,055",1,11722 SW Cottonwood Avenue,Real Property Management,EnergyTown,Illinois,10102-6814,COMMERCIAL,1986
10101/3ae71,MER1SAEM+YT2-MER1SAEM+ZFB-MER1SAEM+Q41,"323,298",1,12156 E Obama Court,Distinctive Properties,EnergyTown,Illinois,10101-9210,COMMERCIAL,1924
10101/59811,TSSQ0QPM+TD1-TSSQ0QPM+MRO-TSSQ0QPM+ADU,"389,386",1,68502 SW Cedar Boulevard,Clear Title Agency of AZ,EnergyTown,Illinois,10101-8415,COMMERCIAL,1969
10102/ca07a,FS3B0OLO+OG3-FS3B0OLO+UO4-FS3B0OLO+AVY,"214,620",1,129400 NE Olive Loop,Trust Field Services,EnergyTown,Illinois,10102-8675,COMMERCIAL,1994
10108/7e9dc,ME1LX5LK+ZC7-ME1LX5LK+HF3-ME1LX5LK+DJE,"211,783",1,173580 E Buckeye Alley,GRS Group,EnergyTown,Illinois,10108-5541,COMMERCIAL,1982
10106/4cc99,KMB2S96Y+SXY-KMB2S96Y+D7E-KMB2S96Y+HW9,"136,967",1,42202 SE Madrone Alley,Renters Warehouse,EnergyTown,Illinois,10106-4030,COMMERCIAL,1981
10102/d70df,7THBFZQC+CH7-7THBFZQC+SNQ-7THBFZQC+UYI,"59,188",1,84376 SE Plum Loop,Reliant Realty,EnergyTown,Illinois,10102-1745,COMMERCIAL,1962
10108/d4bac,BEX2PBTU+PYG-BEX2PBTU+3N8-BEX2PBTU+7G2,"50,023",1,198398 N Fir Loop,Meridian Pacific Properties,EnergyTown,Illinois,10108-9151,HOTELS/MOTELS,1970
10106/20e9c,OYQSJMHP+M1K-OYQSJMHP+WNJ-OYQSJMHP+TDY,"269,625",1,83182 NW Grapefruit Court,Guaranteed Rate,EnergyTown,Illinois,10106-4529,RESIDENTIAL-MULTI FAMILY,1963
10107/25337,Q1RLPCLG+JII-Q1RLPCLG+Y9K-Q1RLPCLG+E17,"262,027",1,185235 NW Sycamore Avenue,JMA Properties,EnergyTown,Illinois,10107-5710,HOTELS/MOTELS,1963
10109/77a2d,CREGOZFI+9C5-CREGOZFI+X4B-CREGOZFI+PD4,"254,909",1,129200 SW Coolidge Avenue,NTP Wireless,EnergyTown,Illinois,10109-9586,CONDO,
10108/1621a,69HRU7XM+DG7-69HRU7XM+XIH-69HRU7XM+I9S,"152,403",1,111327 N Arborvitae Way,Teles Properties,EnergyTown,Illinois,10108-4403,RESIDENTIAL-MULTI FAMILY,1968
10110/65093,LJ8YP29C+BA4-LJ8YP29C+HGV-LJ8YP29C+2PO,"78,080",1,56871 NW Juniper Way,Kinder Reese,EnergyTown,Illinois,10110-8760,COMMERCIAL,1969
10107/3a89a,Y8PYUID4+ASF-Y8PYUID4+6TT-Y8PYUID4+GY2,"364,753",1,181123 NW Clementine Lane,Cal-American Homes,EnergyTown,Illinois,10107-1250,HOTELS/MOTELS,1964
10101/8a5ce,O7XQLQ3I+4V3-O7XQLQ3I+VDA-O7XQLQ3I+QR7,"380,071",1,145770 S Van Buren Loop,ePropertySites.com,EnergyTown,Illinois,10101-2764,COMMERCIAL,1987
10103/ad875,22LKAFZB+827-22LKAFZB+LJP-22LKAFZB+LO9,"306,852",1,78615 N Tanoak Alley,NathanTabor.com,EnergyTown,Illinois,10103-7733,RESIDENTIAL-MULTI FAMILY,1964
10107/2067b,MA1YMVG7+JFI-MA1YMVG7+QWB-MA1YMVG7+9ON,"333,524",1,109495 NE Sweetgum Alley,Urban Lending Solutions,EnergyTown,Illinois,10107-1804,COMMERCIAL,1969
10106/cee52,HJNGGYWN+BBK-HJNGGYWN+B7S-HJNGGYWN+MCW,"81,968",1,81454 E Papaya Court,Keller Williams Capital Properties,EnergyTown,Illinois,10106-7121,COMMERCIAL,1980
10108/3b1ad,NAV060B2+PX2-NAV060B2+6BY-NAV060B2+40D,"389,897",1,194521 S Spruce Highway,Real Capital Markets,EnergyTown,Illinois,10108-7919,COMMERCIAL,1987
10106/edc94,PTFUZAJQ+2PN-PTFUZAJQ+7YD-PTFUZAJQ+MAP,"336,575",1,143563 E Dogwood Boulevard,DLP Realty,EnergyTown,Illinois,10106-7358,COMMERCIAL,1985
10108/18d12,A6WLSBGB+VRX-A6WLSBGB+HU2-A6WLSBGB+4UK,"374,710",1,55014 SW Douglas Way,World Wide Land Transfer,EnergyTown,Illinois,10108-3445,COMMERCIAL,1986
10106/d1eb1,NCZGE6N1+DSP-NCZGE6N1+2WZ-NCZGE6N1+3B8,"176,281",1,238731 E Banana Loop,HousingWire,EnergyTown,Illinois,10106-4350,COMMERCIAL,1971
10103/e69e9,ZAUI0PNM+BD7-ZAUI0PNM+YFP-ZAUI0PNM+7AJ,"67,636",1,158214 NW Madison Highway,Nationwide Title Clearing,EnergyTown,Illinois,10103-9823,COMMERCIAL CONDO,
10108/7953b,QV4ARK0E+W1Q-QV4ARK0E+KNC-QV4ARK0E+186,"329,865",1,59697 N Mahogany Highway,Platinum Realty,EnergyTown,Illinois,10108-6293,COMMERCIAL CONDO,
10110/b5da8,1D8IZ31I+XWU-1D8IZ31I+4T8-1D8IZ31I+05O,"296,521",1,106756 W Monroe Lane,US Appraisal Group,EnergyTown,Illinois,10110-7761,COMMERCIAL,1983
10108/d5abc,XB1Y6CHF+LX1-XB1Y6CHF+26D-XB1Y6CHF+Q7V,"237,403",1,43710 SE Reagan Alley,The Menkiti Group,EnergyTown,Illinois,10108-3517,COMMERCIAL,2001
10103/5681a,WHGAD6VL+KBP-WHGAD6VL+BZU-WHGAD6VL+EZY,"142,886",1,120947 SE Pierce Street,Elite Pacific Properties,EnergyTown,Illinois,10103-5219,COMMERCIAL,1910
10104/77201,TQNS1XUR+IZ1-TQNS1XUR+QD6-TQNS1XUR+2HE,206463sf,3,160974 NW Taylor Avenue,Samuel Scott Financial Group,EnergyTown,Illinois,10104-4177,COMMERCIAL,1984
10102/c424e,FM1117PJ+AAP-FM1117PJ+5GM-FM1117PJ+8RX,"377,544",1,236009 SW Oak Road,Professinal Home Buyers,EnergyTown,Illinois,10102-2142,RESIDENTIAL-MULTI FAMILY,0
10103/f44dd,2J9XODY0+ECP-2J9XODY0+G92-2J9XODY0+Q6I,"378,080",1,16238 SW Obama Loop,Maximum One Realty Greater Atlanta,EnergyTown,Illinois,10103-7897,RESIDENTIAL-MULTI FAMILY,1961
10110/6e5bd,IOSQ3EGK+2PP-IOSQ3EGK+5XN-IOSQ3EGK+4LI,"201,890",1,49001 W Banana Loop,Streetsense,EnergyTown,Illinois,10110-3557,RESIDENTIAL-MULTI FAMILY,1941
10110/a2335,XQPT1IQ3+8HZ-XQPT1IQ3+M0F-XQPT1IQ3+XGS,"104,413",1,167056 NE Arborvitae Alley,Boulder Creek Builders,EnergyTown,Illinois,10110-2887,CONDO,
10106/f5bd4,YCT2A781+5QG-YCT2A781+128-YCT2A781+N6V,"327,879",1,112019 S Buchanan Court,ATG Title,EnergyTown,Illinois,10106-7142,COMMERCIAL,1978
10107/70df0,8VT4VG48+0PU-8VT4VG48+2BU-8VT4VG48+4P7,"158,578",1,76916 W Giant Highway,LGI Development,EnergyTown,Illinois,10107-3439,COMMERCIAL,1925
10110/917ed,L9LKN3MS+L7Y-L9LKN3MS+VEL-L9LKN3MS+CHM,"243,136",1,96442 NE True Road,Tim O'Brien Homes,EnergyTown,Illinois,10110-5865,COMMERCIAL,2006
10102/23871,Y83JG15H+8V4-Y83JG15H+3JA-Y83JG15H+ILN,"290,457",1,54222 S Palm Road,McGeough Lamacchia Realty,EnergyTown,Illinois,10102-9214,COMMERCIAL,1991
10101/f4ea1,SMVEX0PZ+93G-SMVEX0PZ+HI7-SMVEX0PZ+W20,"338,646",1,37052 NE Bush Street,Bean Group,EnergyTown,Illinois,10101-9234,COMMERCIAL,1964
10101/870d0,G9SDQJRA+REQ-G9SDQJRA+LGW-G9SDQJRA+895,"345,137",1,184039 S Catalpa Highway,Gorilla Capital,EnergyTown,Illinois,10101-3335,COMMERCIAL,1971
10104/719bd,1GYL7EU5+D38-1GYL7EU5+V1Y-1GYL7EU5+JTT,"168,646",1,13688 SW Cordia Alley,1st Equity,EnergyTown,Illinois,10104-8405,COMMERCIAL,1980
10101/9e375,FFKG3V7O+EDI-FFKG3V7O+4ND-FFKG3V7O+YTV,"356,934",1,110752 W McKinley Highway,Realty ONE Group,EnergyTown,Illinois,10101-7359,COMMERCIAL,1966
10104/19138,QDXXZ9FD+VL2-QDXXZ9FD+NYZ-QDXXZ9FD+6FP,"329,184",1,240102 N Hazel Alley,Asset Realty Group,EnergyTown,Illinois,10104-2266,COMMERCIAL,1969
10106/46cb5,IONHQ4CE+DQU-IONHQ4CE+VDA-IONHQ4CE+5KI,"222,340",1,191776 SW Carissa Boulevard,Movoto,EnergyTown,Illinois,10106-6708,COMMERCIAL,1970
10103/59beb,X0FIZS0B+9E2-X0FIZS0B+CNR-X0FIZS0B+TOW,"144,031",1,165941 SW Van Buren Alley,American Eagle Mortgage,EnergyTown,Illinois,10103-4059,COMMERCIAL,2001
10104/3e728,9VBETKGS+5QH-9VBETKGS+XGT-9VBETKGS+Y7N,"374,250",1,30937 E Cantaloupe Court,@Properties,EnergyTown,Illinois,10104-7823,RESIDENTIAL-MULTI FAMILY,1908
10109/64c88,UVOAG7JI+H2P-UVOAG7JI+IHV-UVOAG7JI+Q6S,"133,345",1,230641 SE Maple Court,Conservice,EnergyTown,Illinois,10109-3809,RESIDENTIAL-MULTI FAMILY,1929
10103/a2db4,00274DEV+CEI-00274DEV+EZ9-00274DEV+THR,"121,490",1,226595 NE Lime Loop,HomeSmart,EnergyTown,Illinois,10103-5410,COMMERCIAL,1971
10101/4d220,UOMKUP3E+XFR-UOMKUP3E+PJZ-UOMKUP3E+E9Q,"94,512",55,59001 NE Buchanan Way,MG Properties Group,EnergyTown,Illinois,10101-1284,COMMERCIAL,1923
10106/362cf,6WAFBCVZ+9UQ-6WAFBCVZ+R7J-6WAFBCVZ+HRM,"161,504",1,54512 E Cypress Lane,Pacific Union International,EnergyTown,Illinois,10106-6188,COMMERCIAL,1969
10109/75597,ZV95BV6N+EVS-ZV95BV6N+4OB-ZV95BV6N+WMI,"168,943",1,183594 E Banana Court,Sperry Van Ness International,EnergyTown,Illinois,10109-3203,COMMERCIAL,1969
10102/361fe,9QC0NMSA+WI1-9QC0NMSA+WE3-9QC0NMSA+TSW,"376,061",1,80564 SE Truman Road,Asset Plus Companies,EnergyTown,Illinois,10102-5682,COMMERCIAL,1971
10105/f27f8,NZYJTJFU+EGB-NZYJTJFU+4JD-NZYJTJFU+DQK,"171,212",1,177539 S Sweetgum Lane,Prudential Americana Group Realtors,EnergyTown,Illinois,10105-1151,COMMERCIAL,1978
10104/79ce4,VBXD2O85+AB2-VBXD2O85+FF4-VBXD2O85+254,"63,866",1,18643 SW Watermelon Alley,ISGN,EnergyTown,Illinois,10104-7477,COMMERCIAL,1978
10105/5f6fc,S6P1KY90+J57-S6P1KY90+S3A-S6P1KY90+I7Q,"263,071",1,31060 W Plum Highway,Kidder Mathews,EnergyTown,Illinois,10105-9738,CONDO,
10107/a5692,94DPEMUN+S7R-94DPEMUN+6Z6-94DPEMUN+IQZ,"81,020",1,181056 S Johnson Street,Levrose Commercial Real Estate,EnergyTown,Illinois,10107-1535,COMMERCIAL,1967
10107/4b86f,OBCF9BWW+5AK-OBCF9BWW+B78-OBCF9BWW+HRI,"318,040",1,160543 SW Catalpa Lane,Pro Teck Valuation Services,EnergyTown,Illinois,10107-4489,COMMERCIAL,1975
10110/23f17,DJSM9S6R+WYS-DJSM9S6R+7IZ-DJSM9S6R+IC0,"310,377",1,117306 E Horsechestnut Alley,The Mount Vernon Company,EnergyTown,Illinois,10110-4572,COMMERCIAL,1980
10110/6dde5,ZYMZRFYV+4AM-ZYMZRFYV+BWR-ZYMZRFYV+NCT,"84,262",1,214269 SE Horsechestnut Loop,Select Office Suites,EnergyTown,Illinois,10110-5363,COMMERCIAL,1984
10110/b3901,E03M6D5L+EQ4-E03M6D5L+KRZ-E03M6D5L+RJM,"199,416",1,154739 NW Watermelon Court,Schmidt Real Estate,EnergyTown,Illinois,10110-4056,COMMERCIAL,1964
10106/d6584,A0S3LACH+TJ0-A0S3LACH+X4O-A0S3LACH+W0W,"196,709",1,83453 SW Olive Highway,Oakbrook,EnergyTown,Illinois,10106-6040,COMMERCIAL,1986
10109/1e5ad,CBXATJNA+JKK-CBXATJNA+1HN-CBXATJNA+BN3,"78,810",1,135287 E Roosevelt Road,ERA Sunrise Realty,EnergyTown,Illinois,10109-1389,COMMERCIAL,1969
10103/90ca7,5L8H0K7S+I9Y-5L8H0K7S+G2Y-5L8H0K7S+Y8F,"131,874",1,5151 E Honeylocust Alley,Keller Williams Realty,EnergyTown,Illinois,10103-5720,COMMERCIAL,1971
10106/9d65f,4R8SIO2L+MZT-4R8SIO2L+ZFE-4R8SIO2L+4Q1,"243,274",1,224905 E Buchanan Loop,CWS Corporate Leasing,EnergyTown,Illinois,10106-8737,COMMERCIAL,1975
10107/d22e1,H9F17NSH+93I-H9F17NSH+WYX-H9F17NSH+V0Y,"370,224",1,61173 SE Willow Lane,Occidental Management,EnergyTown,Illinois,10107-5678,COMMERCIAL,1975
10104/33fef,ZKSS2ZMP+5T7-ZKSS2ZMP+5VY-ZKSS2ZMP+PF3,"161,228",1,211686 NE Pear Boulevard,Morris Hardwick Schneider/Landcastle Title,EnergyTown,Illinois,10104-3519,COMMERCIAL,1978
10104/584d6,4NFHR8F1+ZHX-4NFHR8F1+PUE-4NFHR8F1+H3X,"142,385",1,50518 SW Buchanan Lane,Capital Title of Texas,EnergyTown,Illinois,10104-2490,COMMERCIAL,1980
10107/1a867,XKHIGPE2+QFS-XKHIGPE2+W6G-XKHIGPE2+F9U,"55,913",1,81088 NW Arthur Lane,American Reporting,EnergyTown,Illinois,10107-7089,COMMERCIAL,1963
10110/65c94,12ZCVRO7+NEN-12ZCVRO7+D47-12ZCVRO7+MTI,"267,578",1,105766 E Buckthorn Road,Real Freedom,EnergyTown,Illinois,10110-1072,COMMERCIAL,1984
10108/23890,5848UXMH+UDR-5848UXMH+FZX-5848UXMH+9BT,"321,198",1,126421 NW Honeylocust Street,Temporary Housing Directory,EnergyTown,Illinois,10108-3242,COMMERCIAL,1979
10106/2570a,PZ4DXVGC+EU9-PZ4DXVGC+4CK-PZ4DXVGC+M8E,"346,769",1,41950 SW Mandarin Highway,MileStone Community Builders,EnergyTown,Illinois,10106-5306,COMMERCIAL,1986
10110/7eea9,BR9A54LJ+DW1-BR9A54LJ+LLA-BR9A54LJ+K2C,"132,467",1,47762 E Guava Road,Pangea Properties,EnergyTown,Illinois,10110-4803,COMMERCIAL,1960
10107/65954,YLI2BUJW+T5O-YLI2BUJW+ZFJ-YLI2BUJW+9WK,"82,973",1,134895 W Buckeye Boulevard,Matt Martin Real Estate Management,EnergyTown,Illinois,10107-1332,COMMERCIAL,2005
10101/5910c,HUB39MXK+TML-HUB39MXK+AMV-HUB39MXK+YDU,"390,448",1,152914 NW Cherry Avenue,Celerity Ventures,EnergyTown,Illinois,10101-8337,COMMERCIAL,1975
10101/ff7ec,JMYANB4C+77P-JMYANB4C+L6J-JMYANB4C+JK6,"234,587",1,194500 S Horsechestnut Boulevard,Marketplace Homes,EnergyTown,Illinois,10101-4574,COMMERCIAL,1981
10105/e4147,ALYZVRHY+37X-ALYZVRHY+3LP-ALYZVRHY+IRW,"251,899",1,162444 S Chinkapin Street,Apartment List,EnergyTown,Illinois,10105-5779,GARAGE/UNIMPROVED LAND,2012
10107/6b091,DZTDYVEX+B8X-DZTDYVEX+89P-DZTDYVEX+FDA,"256,129",1,38525 E Tangarine Avenue,Econohomes,EnergyTown,Illinois,10107-6468,COMMERCIAL,1915
10109/11cf5,1RMUNLQE+4W4-1RMUNLQE+R0C-1RMUNLQE+QAQ,309832sf,1,146819 NW Van Buren Highway,PropertyRate,EnergyTown,Illinois,10109-2097,COMMERCIAL,2003
10103/1e706,KWWU5P72+ZDR-KWWU5P72+LPB-KWWU5P72+888,304902sf,1,200071 E Plum Way,Landmark Network,EnergyTown,Illinois,10103-8111,COMMERCIAL,1928
10110/212b5,ZP7BUR05+B4E-ZP7BUR05+SLC-ZP7BUR05+8TX,"367,683",1,213645 E Myrtle Road,Memphis Invest,EnergyTown,Illinois,10110-5097,COMMERCIAL,1929
10101/efe3c,VN0VLAVW+HI1-VN0VLAVW+OYN-VN0VLAVW+ZJM,"392,032",1,224774 N Cypress Alley,ACT Appraisal,EnergyTown,Illinois,10101-7921,COMMERCIAL,1969
10103/f062c,DCRUBE40+QL8-DCRUBE40+UNO-DCRUBE40+CFC,"365,763",1,12412 NW Clementine Avenue,Levrose Commercial Real Estate,EnergyTown,Illinois,10103-8824,COMMERCIAL,1970
10108/90bc8,DTCK8YDT+6EA-DTCK8YDT+TFN-DTCK8YDT+GM4,"206,659",1,27876 SW Chinkapin Street,Pro Teck Valuation Services,EnergyTown,Illinois,10108-9109,COMMERCIAL,1981
10103/884e4,0CGXFVZD+ZDD-0CGXFVZD+V6H-0CGXFVZD+S6L,"151,268",1,65903 E Cleveland Court,The Mount Vernon Company,EnergyTown,Illinois,10103-7767,COMMERCIAL,1965
10102/95c94,2V26J853+V64-2V26J853+FLL-2V26J853+Q92,"66,318",1,35615 S Dogwood Way,Select Office Suites,EnergyTown,Illinois,10102-7433,COMMERCIAL,2001
10110/39f62,1LPX5V9Y+735-1LPX5V9Y+O1D-1LPX5V9Y+TNI,"335,912",1,45117 W Roosevelt Avenue,Schmidt Real Estate,EnergyTown,Illinois,10110-9579,COMMERCIAL,1927
10102/835dd,2FC0T3YJ+0ND-2FC0T3YJ+DCM-2FC0T3YJ+3I7,"353,776",1,178944 W Hawthorn Alley,Oakbrook,EnergyTown,Illinois,10102-8144,COMMERCIAL,1962
10103/d92ab,GKBK0U0L+6WG-GKBK0U0L+B6E-GKBK0U0L+B5I,"184,417",1,73210 S Sweetgum Avenue,ERA Sunrise Realty,EnergyTown,Illinois,10103-5446,COMMERCIAL,1967
10102/ebbbc,FFSPR0TU+I8D-FFSPR0TU+YZ5-FFSPR0TU+W7S,"359,118",1,141564 NW Pears Boulevard,Keller Williams Realty,EnergyTown,Illinois,10102-9833,COMMERCIAL,1981
10110/43a53,S5A3FWZ3+B0X-S5A3FWZ3+YC3-S5A3FWZ3+X8P,"267,640",1,76655 SE Cordia Boulevard,CWS Corporate Leasing,EnergyTown,Illinois,10110-1247,COMMERCIAL,1982
10108/b0821,4UETAUJW+9KP-4UETAUJW+JBY-4UETAUJW+ENO,"343,420",1,99332 SE Lime Highway,Occidental Management,EnergyTown,Illinois,10108-3123,COMMERCIAL,1988
10101/caa75,W60M7VNT+SJO-W60M7VNT+YQV-W60M7VNT+OFQ,"212,875",1,21417 NW Ford Alley,Morris Hardwick Schneider/Landcastle Title,EnergyTown,Illinois,10101-3167,COMMERCIAL,2010
10110/efbf0,EJOUIJDI+VD5-EJOUIJDI+P0G-EJOUIJDI+DRK,"159,665",1,149612 W Mango Boulevard,Capital Title of Texas,EnergyTown,Illinois,10110-5315,COMMERCIAL,1955
10109/ce073,H0TEU04I+RZ6-H0TEU04I+5LG-H0TEU04I+VH4,"163,766",1,179705 NW Madison Road,American Reporting,EnergyTown,Illinois,10109-1024,COMMERCIAL,1964
10101/cae1c,2KTVPQ4I+6LN-2KTVPQ4I+9I5-2KTVPQ4I+21T,"90,246",1,147977 W Carissa Way,Real Freedom,EnergyTown,Illinois,10101-7904,COMMERCIAL,1960
10107/ec7e9,I7QMU6LM+C9P-I7QMU6LM+GZS-I7QMU6LM+S7M,"272,782",1,103478 E Honeydew Lane,Temporary Housing Directory,EnergyTown,Illinois,10107-4579,COMMERCIAL,1950
10109/314bf,DQN8759K+NVQ-DQN8759K+FRT-DQN8759K+FFU,"279,445",1,151403 NW Plum Way,MileStone Community Builders,EnergyTown,Illinois,10109-4862,RESIDENTIAL-MULTI FAMILY,1961
10110/6145c,ONZS5GRO+VFO-ONZS5GRO+W70-ONZS5GRO+Y24,"226,245",1,236094 W Lemon Loop,Pangea Properties,EnergyTown,Illinois,10110-5059,HOTELS/MOTELS,1947
10110/29490,JLDGFJV6+JQW-JLDGFJV6+XGZ-JLDGFJV6+BX9,"252,385",1,168581 NW Buckeye Alley,Matt Martin Real Estate Management,EnergyTown,Illinois,10110-6435,COMMERCIAL,1974
10106/691b0,MVBWLKPG+1JX-MVBWLKPG+3MG-MVBWLKPG+ZP2,"94,646",1,122209 NE Tanoak Lane,Celerity Ventures,EnergyTown,Illinois,10106-2905,COMMERCIAL,1978
10101/5168d,PFENZYYD+VZ9-PFENZYYD+R30-PFENZYYD+K38,"328,575",1,96586 S Alder Lane,Marketplace Homes,EnergyTown,Illinois,10101-7820,COMMERCIAL,1926
10109/8a4e7,9EF0NZTZ+EPX-9EF0NZTZ+1CD-9EF0NZTZ+G8W,"376,566",1,47878 W Madison Road,Apartment List,EnergyTown,Illinois,10109-9642,COMMERCIAL,1984
10101/132e1,ZAP4XC1B+ZFZ-ZAP4XC1B+J49-ZAP4XC1B+UEM,"68,177",1,198832 SE Arthur Loop,Econohomes,EnergyTown,Illinois,10101-4795,COMMERCIAL,1956
10108/46dce,UBB6YLOY+RMK-UBB6YLOY+DAJ-UBB6YLOY+ZEB,"354,068",1,186620 SW Van Buren Alley,PropertyRate,EnergyTown,Illinois,10108-1275,COMMERCIAL,1983
10106/30e00,GJ9PFO2R+M66-GJ9PFO2R+8C5-GJ9PFO2R+PE6,"72,629",1,14119 SE Palm Way,Landmark Network,EnergyTown,Illinois,10106-9130,COMMERCIAL,1947
10101/25e4b,A7FB9JHN+MJE-A7FB9JHN+PPA-A7FB9JHN+FEG,"323,725",1,162695 NW Monroe Alley,Memphis Invest,EnergyTown,Illinois,10101-8073,COMMERCIAL,1964
10104/d4122,CGRHTALT+EBM-CGRHTALT+EAP-CGRHTALT+6B9,"233,321",1,12302 SW Garfield Court,ACT Appraisal,EnergyTown,Illinois,10104-9326,COMMERCIAL,1963
10106/a282f,2OAICT5L+CNS-2OAICT5L+65A-2OAICT5L+FMN,"281,797",1,91092 SE Willow Alley,Innotion Enterprises,EnergyTown,Illinois,10106-9254,HOTELS/MOTELS,1965
10107/b83bc,WTQJ2747+PDX-WTQJ2747+B79-WTQJ2747+DBF,"133,497",1,219121 W Poplar Alley,The Force Realty,EnergyTown,Illinois,10107-8305,COMMERCIAL,1978
10103/40e88,WJRGIC0I+AT9-WJRGIC0I+ERR-WJRGIC0I+0BT,"225,803",1,29724 W Buckeye Way,PalmerHouse Properties,EnergyTown,Illinois,10103-2568,COMMERCIAL,1979
10104/b6775,G5SAPUOY+YG3-G5SAPUOY+ZGE-G5SAPUOY+2GM,"319,046",1,186838 NE Basswood Boulevard,CoesterVMS,EnergyTown,Illinois,10104-7344,COMMERCIAL,1985
10109/e58d8,BGSUJF8K+P12-BGSUJF8K+3PX-BGSUJF8K+BX4,"398,146",1,216231 N Hazel Alley,Hawaii Life,EnergyTown,Illinois,10109-7352,COMMERCIAL,1987
10102/67bc4,K1VQJVER+2AJ-K1VQJVER+TW0-K1VQJVER+OY8,"263,526",1,147524 W Fir Boulevard,Apex Home Loans,EnergyTown,Illinois,10102-8497,COMMERCIAL,1990
10108/ef88b,HE86M6YV+SS3-HE86M6YV+QF4-HE86M6YV+EOM,"112,101",1,24444 NW Clinton Court,Stress Free Property Management,EnergyTown,Illinois,10108-9067,COMMERCIAL,1978
10101/9280d,A42YNIVK+3JB-A42YNIVK+M61-A42YNIVK+HD7,"274,374",1,226375 N Truman Loop,Fairplay Financial,EnergyTown,Illinois,10101-1908,COMMERCIAL,1982
10105/e6a13,2TYJMIFG+7JO-2TYJMIFG+LQ4-2TYJMIFG+AHO,"84,387",1,241069 SW Dogwood Highway,Nationwide Appraisal Network,EnergyTown,Illinois,10105-3321,COMMERCIAL,1980
10107/d96b8,HDR39KK6+E6N-HDR39KK6+XUJ-HDR39KK6+JGU,"265,779",1,165800 S Olive Highway,Robert Paul Properties,EnergyTown,Illinois,10107-4001,COMMERCIAL,1955
10101/b2a57,NU77Y7MG+QGP-NU77Y7MG+C3L-NU77Y7MG+GDC,"122,712",1,186771 E Polk Street,Trulia,EnergyTown,Illinois,10101-1225,COMMERCIAL,1935
10110/f69a2,RSJUIFLD+HSJ-RSJUIFLD+YLJ-RSJUIFLD+HH6,"60,462",1,52524 NE Roosevelt Alley,The Ruby Group,EnergyTown,Illinois,10110-2766,COMMERCIAL,1979
10102/d2ab2,NUW3UUXK+X5T-NUW3UUXK+GAY-NUW3UUXK+CK6,"279,414",1,58027 NW Apricots Court,Valuation Management Group,EnergyTown,Illinois,10102-5461,COMMERCIAL,1965
10101/4fa4d,C5YJ4FS1+48X-C5YJ4FS1+NUZ-C5YJ4FS1+SFT,"359,601",1,57318 SE Wilson Loop,Hipercept,EnergyTown,Illinois,10101-1505,COMMERCIAL,1909
10109/8ea35,SRGVWWE5+OA6-SRGVWWE5+8SV-SRGVWWE5+J8G,"252,930",1,190741 NW Aspen Alley,Accurate Group,EnergyTown,Illinois,10109-5278,HOTELS/MOTELS,1940
10103/9971f,THTM5PQH+SKW-THTM5PQH+OJ7-THTM5PQH+KDH,"284,692",1,110271 S Tyler Lane,Nest Realty,EnergyTown,Illinois,10103-6146,CONDO,
10101/5b284,P0LKKLAP+CIZ-P0LKKLAP+AZ9-P0LKKLAP+3JZ,"397,747",1,83980 SE Chestnut Boulevard,JWB Real Estate Companies,EnergyTown,Illinois,10101-2509,RESIDENTIAL-MULTI FAMILY,1916
10104/75084,J084AYM6+KXP-J084AYM6+OKG-J084AYM6+SW3,"192,764",1,1469 E Buckthorn Alley,Real Property Management,EnergyTown,Illinois,10104-9172,RESIDENTIAL-MULTI FAMILY,1917
10107/14cc2,LQ8G32HM+ZAG-LQ8G32HM+ODE-LQ8G32HM+X35,"321,604",1,108988 SE True Highway,Distinctive Properties,EnergyTown,Illinois,10107-4780,CONDO,
10101/9db07,NXAXRHNS+103-NXAXRHNS+BTT-NXAXRHNS+Z4X,"73,993",1,101108 SW Sycamore Avenue,Clear Title Agency of AZ,EnergyTown,Illinois,10101-4188,RESIDENTIAL-MULTI FAMILY,1914
10101/5f8be,XRGERNNK+DCE-XRGERNNK+CJM-XRGERNNK+26V,"201,516",1,113857 SW Pear Street,Trust Field Services,EnergyTown,Illinois,10101-2521,COMMERCIAL,1919
10101/909fd,9Q03DO2T+29Z-9Q03DO2T+RKZ-9Q03DO2T+6TC,"296,318",1,131438 E Cypress Boulevard,GRS Group,EnergyTown,Illinois,10101-9431,RESIDENTIAL-MULTI FAMILY,1939
10104/92baf,Z5IUSFOD+D8O-Z5IUSFOD+7D2-Z5IUSFOD+OS8,"216,136",1,20288 NW Obama Boulevard,Renters Warehouse,EnergyTown,Illinois,10104-2970,COMMERCIAL,1963
10106/d4150,6OQ3MANN+ADY-6OQ3MANN+G5B-6OQ3MANN+D4K,"80,284",1,126382 SW Giant Lane,Reliant Realty,EnergyTown,Illinois,10106-2863,COMMERCIAL,1959
10110/eb54e,8W3AKAOG+PF4-8W3AKAOG+NR3-8W3AKAOG+774,"236,965",1,93624 N Alder Way,Meridian Pacific Properties,EnergyTown,Illinois,10110-5561,COMMERCIAL,1997
10110/5f905,T1Y1IB9I+KFB-T1Y1IB9I+V0N-T1Y1IB9I+JYV,"66,188",1,92910 NW Papaya Court,Guaranteed Rate,EnergyTown,Illinois,10110-6668,RESIDENTIAL-MULTI FAMILY,0
10104/af3b8,H5P52P3D+QQ7-H5P52P3D+0TW-H5P52P3D+G9E,"159,512",1,217490 S Bush Way,JMA Properties,EnergyTown,Illinois,10104-4338,CONDO,
10107/a1bc5,FD5KCM40+9JE-FD5KCM40+ID9-FD5KCM40+PMD,"111,677",1,174743 SW True Highway,NTP Wireless,EnergyTown,Illinois,10107-6589,CONDO,
10107/89991,L5JHJ0BO+97W-L5JHJ0BO+TBL-L5JHJ0BO+KYP,"127,884",1,25230 W True Loop,Teles Properties,EnergyTown,Illinois,10107-9825,CONDO,
10106/1cd18,8CRUJLK0+FYS-8CRUJLK0+B1T-8CRUJLK0+7DI,"231,495",1,53888 E Sycamore Loop,Kinder Reese,EnergyTown,Illinois,10106-8683,COMMERCIAL,1968
10102/b1dc3,0BKBH6CJ+5OF-0BKBH6CJ+I7X-0BKBH6CJ+IFI,"355,744",1,79794 NW Hayes Loop,Cal-American Homes,EnergyTown,Illinois,10102-2681,COMMERCIAL,1970
10102/6a342,L7883IPN+BYZ-L7883IPN+CSF-L7883IPN+BA6,"318,796",1,104558 E Tyler Loop,ePropertySites.com,EnergyTown,Illinois,10102-9503,COMMERCIAL,1981
10102/feaac,JKY3Y00C+CBQ-JKY3Y00C+W1K-JKY3Y00C+HPX,"187,528",1,22305 W California Way,NathanTabor.com,EnergyTown,Illinois,10102-1794,COMMERCIAL,1962
10102/521c9,G0EDS64X+7Y3-G0EDS64X+7R0-G0EDS64X+4QD,"172,192",1,99258 S Cottonwood Alley,Urban Lending Solutions,EnergyTown,Illinois,10102-9359,HOTELS/MOTELS,1964
10108/940d4,9GN8L2L1+M67-9GN8L2L1+HW8-9GN8L2L1+4TS,"346,716",1,202915 NE Papaya Avenue,Keller Williams Capital Properties,EnergyTown,Illinois,10108-7954,COMMERCIAL CONDO,
10107/d1bae,PUIBGJU0+0IX-PUIBGJU0+O5B-PUIBGJU0+9PY,"183,320",1,102708 W Watermelon Lane,Real Capital Markets,EnergyTown,Illinois,10107-3042,COMMERCIAL,1970
10104/a79eb,SIIT5V2P+ZEK-SIIT5V2P+RAK-SIIT5V2P+GDH,"121,133",1,204154 NE Dogwood Lane,DLP Realty,EnergyTown,Illinois,10104-9311,COMMERCIAL,1968
10110/5a2e9,P8QMKWY6+0GZ-P8QMKWY6+KHI-P8QMKWY6+N17,"282,652",1,89714 W Hemlock Road,World Wide Land Transfer,EnergyTown,Illinois,10110-3735,COMMERCIAL,1978
10102/b5ce8,8XD2ENZN+ZYL-8XD2ENZN+KMB-8XD2ENZN+U73,"326,363",1,67980 E Elm Boulevard,HousingWire,EnergyTown,Illinois,10102-2549,COMMERCIAL,1941
10108/438f7,6HETIVBY+Q22-6HETIVBY+V9M-6HETIVBY+JN4,"322,333",3,166502 NE Hemlock Road,Nationwide Title Clearing,EnergyTown,Illinois,10108-7408,COMMERCIAL,1908
10105/142af,T40FYX78+9VX-T40FYX78+UQR-T40FYX78+Y30,"386,045",1,94598 W Clementine Highway,Platinum Realty,EnergyTown,Illinois,10105-7974,COMMERCIAL,1966
10106/576c0,V4JT562Z+FIE-V4JT562Z+OKR-V4JT562Z+BQ7,"208,071",1,244219 S Hawthorn Alley,US Appraisal Group,EnergyTown,Illinois,10106-4823,COMMERCIAL,1968
10101/f67d7,0OGQD2P4+NCZ-0OGQD2P4+P3A-0OGQD2P4+Y6B,"74,308",1,80827 NE Obama Court,The Menkiti Group,EnergyTown,Illinois,10101-1519,COMMERCIAL,1965
10110/8b1be,7845J8XH+Q1L-7845J8XH+FQ0-7845J8XH+7G3,"309,403",1,236988 N Cordia Way,Elite Pacific Properties,EnergyTown,Illinois,10110-5811,COMMERCIAL,1967
10102/b0a1a,PPGDOGZS+YRZ-PPGDOGZS+EXC-PPGDOGZS+O9U,"135,818",1,237605 E Tanoak Alley,Samuel Scott Financial Group,EnergyTown,Illinois,10102-2567,COMMERCIAL,1959
10110/13814,53M61640+VOV-53M61640+FRR-53M61640+76M,398407sf,1,240641 E Honeydew Highway,Professinal Home Buyers,EnergyTown,Illinois,10110-5818,COMMERCIAL,1975
10101/8d998,1X6WGH2H+C2V-1X6WGH2H+YHR-1X6WGH2H+WUF,"355,670",1,206941 SE Arthur Street,Maximum One Realty Greater Atlanta,EnergyTown,Illinois,10101-7951,COMMERCIAL,1984
10104/7cd66,QKJNRCPU+NQB-QKJNRCPU+CEV-QKJNRCPU+C0K,"193,843",1,205931 NE Incense Highway,Streetsense,EnergyTown,Illinois,10104-3836,COMMERCIAL,1963
10106/3ecb6,ZCDFQ2DJ+SPH-ZCDFQ2DJ+64T-ZCDFQ2DJ+5SJ,"278,480",1,98457 N Fillmore Way,Boulder Creek Builders,EnergyTown,Illinois,10106-2302,COMMERCIAL,1965
10102/228e2,2XVKWE04+OUL-2XVKWE04+UI1-2XVKWE04+X7G,"107,487",1,66139 NE Mango Court,ATG Title,EnergyTown,Illinois,10102-4172,COMMERCIAL,1962
10108/cbf55,96A47NLR+D3E-96A47NLR+1GW-96A47NLR+VAN,"359,379",1,197211 NE Holly Loop,LGI Development,EnergyTown,Illinois,10108-2032,COMMERCIAL,1971
10109/b959b,DCJ6ES9T+DGP-DCJ6ES9T+DKP-DCJ6ES9T+I2G,"284,683",1,94390 W Hawthorn Road,Tim O'Brien Homes,EnergyTown,Illinois,10109-3632,COMMERCIAL,1978
10101/55160,M93EKIX4+WLH-M93EKIX4+OCT-M93EKIX4+1WP,"299,174",1,3649 W Washington Way,McGeough Lamacchia Realty,EnergyTown,Illinois,10101-1632,COMMERCIAL,1980
10107/9728a,RHCING9Y+RLC-RHCING9Y+6MZ-RHCING9Y+8RH,333301 sq. ft,1,211374 NE Nixon Court,Bean Group,EnergyTown,Illinois,10107-7505,HOTELS/MOTELS,1925
10103/c94b4,DZW5KVZJ+BO5-DZW5KVZJ+139-DZW5KVZJ+Z6B,"148,791",1,1086 W Apricots Alley,Gorilla Capital,EnergyTown,Illinois,10103-1298,COMMERCIAL,1984
10110/91f8c,HMWVEKMN+TN8-HMWVEKMN+7JP-HMWVEKMN+9XL,"273,132",1,187027 W Alder Avenue,1st Equity,EnergyTown,Illinois,10110-7241,COMMERCIAL,1988
10109/17b7e,JN0CURU0+2LK-JN0CURU0+V2O-JN0CURU0+BX9,"305,438",1,212701 NW Polk Boulevard,Realty ONE Group,EnergyTown,Illinois,10109-1758,COMMERCIAL,1963
10108/7e35b,TZ5XM247+VHH-TZ5XM247+9YZ-TZ5XM247+GHK,"155,963",1,117368 W Walnut Street,Asset Realty Group,EnergyTown,Illinois,10108-2197,COMMERCIAL,1962
10109/68ade,HBP4U309+DEN-HBP4U309+DU5-HBP4U309+4NO,"104,033",1,141047 W Johnson Street,Movoto,EnergyTown,Illinois,10109-3896,COMMERCIAL,1969
10109/21329,JO1KCAO8+RTA-JO1KCAO8+JQZ-JO1KCAO8+ZTN,"125,353",1,85848 NW Maple Loop,American Eagle Mortgage,EnergyTown,Illinois,10109-6838,COMMERCIAL,1970
10109/4550c,Y45Z7S3V+V06-Y45Z7S3V+ZA4-Y45Z7S3V+390,"236,260",1,214531 N Honeylocust Court,@Properties,EnergyTown,Illinois,10109-4816,COMMERCIAL,1981
10109/849b4,Z2M3OZB7+K2P-Z2M3OZB7+GQS-Z2M3OZB7+Z40,"153,402",1,218041 NW Hawthorn Lane,Conservice,EnergyTown,Illinois,10109-5862,GARAGE/UNIMPROVED LAND,2012
10109/f8b70,Q3P3NFUM+X02-Q3P3NFUM+1CG-Q3P3NFUM+IJP,"346,583",1,175795 E Juniper Lane,HomeSmart,EnergyTown,Illinois,10109-2485,COMMERCIAL,1963
10104/561df,174AEIL8+1N9-174AEIL8+E52-174AEIL8+LS7,"312,475",1,139848 NE Plantain Avenue,MG Properties Group,EnergyTown,Illinois,10104-5521,COMMERCIAL,1954
10104/3bf94,VXL0MH76+EBI-VXL0MH76+PZJ-VXL0MH76+GXM,"382,676",1,68234 SE Incense Court,Pacific Union International,EnergyTown,Illinois,10104-3667,COMMERCIAL,1953
10110/a2b5d,EVOHZSDV+CWJ-EVOHZSDV+4A5-EVOHZSDV+YNV,"381,968",1,17430 E Cantaloupe Highway,Sperry Van Ness International,EnergyTown,Illinois,10110-6925,COMMERCIAL,1967
10103/4aa1d,1TKGURTT+RE1-1TKGURTT+LA7-1TKGURTT+T1B,"338,350",1,83268 S Tyler Avenue,Asset Plus Companies,EnergyTown,Illinois,10103-9735,COMMERCIAL,1974
10110/76274,AHMSH3QE+CUK-AHMSH3QE+D06-AHMSH3QE+PGY,"103,958",1,41415 NE Ash Highway,Prudential Americana Group Realtors,EnergyTown,Illinois,10110-2587,COMMERCIAL,1991
10110/35cb1,M938UM5Z+ZHT-M938UM5Z+O9Q-M938UM5Z+9WE,"50,838",1,47081 SW Aspen Lane,ISGN,EnergyTown,Illinois,10110-5469,HOTELS/MOTELS,1926
10106/3ba7c,D6IVZN4S+1VU-D6IVZN4S+JV8-D6IVZN4S+H45,"290,553",1,21705 S Apricots Street,Kidder Mathews,EnergyTown,Illinois,10106-8005,COMMERCIAL,1961
10104/71c4c,GDP5S1RU+39R-GDP5S1RU+3TP-GDP5S1RU+KX4,"246,691",1,179851 E Jefferson Lane,Levrose Commercial Real Estate,EnergyTown,Illinois,10104-8339,COMMERCIAL,1977
10101/9c91a,0KALCQFP+BTD-0KALCQFP+01Z-0KALCQFP+NO5,"201,228",1,190412 S Jefferson Lane,Pro Teck Valuation Services,EnergyTown,Illinois,10101-8791,COMMERCIAL,1962
10110/77bc2,OODWEU2W+FI3-OODWEU2W+X2J-OODWEU2W+37E,"115,166",1,179201 SE Catalpa Loop,The Mount Vernon Company,EnergyTown,Illinois,10110-4268,COMMERCIAL,1969
10109/6e9e1,9ZRU892U+3I9-9ZRU892U+JKH-9ZRU892U+0TQ,"223,085",1,195941 E Van Buren Avenue,Select Office Suites,EnergyTown,Illinois,10109-5530,COMMERCIAL,1975
10107/b3397,7RUF9M4G+M8Z-7RUF9M4G+I3O-7RUF9M4G+DVO,"371,165",1,85120 E Chestnut Court,Schmidt Real Estate,EnergyTown,Illinois,10107-1860,COMMERCIAL,1960
10107/c6285,ZNNZ1VAU+TLW-ZNNZ1VAU+DCU-ZNNZ1VAU+O31,"214,953",1,39443 SE Taft Boulevard,Oakbrook,EnergyTown,Illinois,10107-8357,COMMERCIAL,2002
10101/6fa4d,I0RTROS3+THS-I0RTROS3+SZP-I0RTROS3+NPV,"95,526",1,90677 N Pears Highway,ERA Sunrise Realty,EnergyTown,Illinois,10101-8364,COMMERCIAL,1908
10108/c40ac,REDBXP35+GJF-REDBXP35+07C-REDBXP35+0P5,"316,430",1,17671 N McKinley Alley,Keller Williams Realty,EnergyTown,Illinois,10108-8428,COMMERCIAL,1989
10108/36315,8ZLQP82V+T45-8ZLQP82V+SIZ-8ZLQP82V+R8R,"148,091",1,11887 W Cottonwood Court,CWS Corporate Leasing,EnergyTown,Illinois,10108-8243,RESIDENTIAL-MULTI FAMILY,1959
10105/2672f,O1CTJIR3+D3A-O1CTJIR3+5YL-O1CTJIR3+0DF,"234,015",1,133552 S Grapes Street,Occidental Management,EnergyTown,Illinois,10105-6555,COMMERCIAL,1965
10108/60dd2,A8084U0H+4AC-A8084U0H+AVO-A8084U0H+LVF,"161,865",1,231480 SE Grant Court,Morris Hardwick Schneider/Landcastle Title,EnergyTown,Illinois,10108-7167,COMMERCIAL,1972
10102/58614,BWN51U7X+XEQ-BWN51U7X+R9O-BWN51U7X+5SG,"301,752",1,195939 N Sweetgum Loop,Capital Title of Texas,EnergyTown,Illinois,10102-3203,COMMERCIAL,1963
10102/f3076,F5WIG3Z5+FDW-F5WIG3Z5+G8A-F5WIG3Z5+FMG,"351,216",1,88468 SE Sweetgum Lane,American Reporting,EnergyTown,Illinois,10102-8071,COMMERCIAL,1986
10105/a5acf,GNIO8KQJ+PJL-GNIO8KQJ+R6S-GNIO8KQJ+R7U,"53,769",1,161014 W Truman Lane,Real Freedom,EnergyTown,Illinois,10105-3879,COMMERCIAL,1978
10103/529b7,PKNUMML8+Y1G-PKNUMML8+G9F-PKNUMML8+HSJ,"188,614",1,30326 W Buchanan Lane,Temporary Housing Directory,EnergyTown,Illinois,10103-9119,COMMERCIAL,1981
10106/4bdb7,KPP5HD2L+IOU-KPP5HD2L+CPA-KPP5HD2L+5HV,"218,999",1,178923 W Cottonwood Lane,MileStone Community Builders,EnergyTown,Illinois,10106-4951,COMMERCIAL,1971
10104/8ce2f,9ZRNCFUW+39B-9ZRNCFUW+L7T-9ZRNCFUW+RKL,"262,670",1,1997 NW Lime Way,Pangea Properties,EnergyTown,Illinois,10104-6653,COMMERCIAL,1971
10107/bcaf5,KH03I5O8+ZA5-KH03I5O8+YET-KH03I5O8+9D0,"160,338",1,158345 W Chinkapin Court,Matt Martin Real Estate Management,EnergyTown,Illinois,10107-5482,COMMERCIAL,1972
10103/7c7c1,OZ3XYP1T+X15-OZ3XYP1T+95W-OZ3XYP1T+UZ4,"339,827",1,150264 N Olive Loop,Celerity Ventures,EnergyTown,Illinois,10103-4656,COMMERCIAL,1962
10109/7562a,UEYSDR8B+Q3R-UEYSDR8B+TQ7-UEYSDR8B+XPM,"250,134",1,56877 SW Taylor Road,Marketplace Homes,EnergyTown,Illinois,10109-2894,COMMERCIAL,1973
10103/b5966,1WJLQWE2+H16-1WJLQWE2+56Z-1WJLQWE2+YKO,"346,023",6,230898 NW Juniper Lane,Apartment List,EnergyTown,Illinois,10103-5555,COMMERCIAL,1912
10107/72ae0,12CGOCEQ+8OE-12CGOCEQ+1WA-12CGOCEQ+3XK,"286,853",6,158660 W Pine Avenue,Econohomes,EnergyTown,Illinois,10107-6003,COMMERCIAL,1909
10102/32301,DVK7HEK4+CV0-DVK7HEK4+QCI-DVK7HEK4+ADG,"208,589",1,200367 N Aspen Highway,PropertyRate,EnergyTown,Illinois,10102-2660,COMMERCIAL CONDO,
10104/df976,N3T8PLXO+LD1-N3T8PLXO+PIH-N3T8PLXO+FBM,"352,418",1,8035 E Papaya Avenue,Landmark Network,EnergyTown,Illinois,10104-6091,COMMERCIAL,1921
10102/e38f0,3L1KVJ5V+YM1-3L1KVJ5V+LI0-3L1KVJ5V+BQ9,"92,739",1,38102 W Madison Lane,Memphis Invest,EnergyTown,Illinois,10102-4608,RESIDENTIAL-MULTI FAMILY,1927
10110/5982f,5620VCNN+BN9-5620VCNN+YBI-5620VCNN+9QN,"71,068",1,91646 SW Tanoak Court,ACT Appraisal,EnergyTown,Illinois,10110-2664,RESIDENTIAL-MULTI FAMILY,1927
10110/8c8af,CQZDONVF+ZBN-CQZDONVF+ESL-CQZDONVF+SGS,"361,611",1,199664 S Palm Avenue,Innotion Enterprises,EnergyTown,Illinois,10110-9626,RESIDENTIAL-MULTI FAMILY,1941
10106/a19cc,R1RS28YE+KS1-R1RS28YE+NVA-R1RS28YE+PNP,"248,238",1,153083 SE Polk Boulevard,The Force Realty,EnergyTown,Illinois,10106-6120,RESIDENTIAL-MULTI FAMILY,1917
10105/142c0,BKH1ZBI5+3SX-BKH1ZBI5+ZIZ-BKH1ZBI5+Q9F,"64,682",1,95045 S Plantain Court,PalmerHouse Properties,EnergyTown,Illinois,10105-6882,RESIDENTIAL-MULTI FAMILY,1923
10109/4eada,B4XH84H3+U6N-B4XH84H3+9IW-B4XH84H3+OU6,"135,380",1,148735 E Honeylocust Lane,CoesterVMS,EnergyTown,Illinois,10109-3957,COMMERCIAL,1989
10108/2a3b0,FNYSH1KN+FQY-FNYSH1KN+418-FNYSH1KN+XKY,"173,219",1,103463 SE Pine Road,Hawaii Life,EnergyTown,Illinois,10108-8096,RESIDENTIAL-MULTI FAMILY,1924
10106/427f8,RQEBWKPI+GWH-RQEBWKPI+Q0Y-RQEBWKPI+KCM,"97,493",1,151463 N Sweetgum Street,Apex Home Loans,EnergyTown,Illinois,10106-9892,RESIDENTIAL-MULTI FAMILY,2001
10103/9e468,5D9WY364+H47-5D9WY364+MIT-5D9WY364+0NI,"390,336",1,194183 SE Birch Highway,Stress Free Property Management,EnergyTown,Illinois,10103-5080,CONDO,
10110/6dd4a,74XA61HF+K2F-74XA61HF+8M9-74XA61HF+BCX,"91,355",1,137299 SW Hemlock Loop,Fairplay Financial,EnergyTown,Illinois,10110-9712,COMMERCIAL,1904
10104/1bd08,Y8O7OPBI+988-Y8O7OPBI+7R7-Y8O7OPBI+1VB,"139,384",1,97036 N Eisenhower Road,Nationwide Appraisal Network,EnergyTown,Illinois,10104-1863,RESIDENTIAL-MULTI FAMILY,0
10104/c0c16,CDWTS7NQ+P9Q-CDWTS7NQ+HE6-CDWTS7NQ+06F,"165,809",1,114328 W Grapefruit Court,Robert Paul Properties,EnergyTown,Illinois,10104-2347,COMMERCIAL,1972
10108/75932,6HH63DBD+KET-6HH63DBD+Z2A-6HH63DBD+30E,"283,903",3,22429 W Mahogany Loop,Trulia,EnergyTown,Illinois,10108-9346,COMMERCIAL,1909
10109/55205,C4QX9BPT+8HJ-C4QX9BPT+LIN-C4QX9BPT+NI9,"285,795",1,120594 W Hayes Way,The Ruby Group,EnergyTown,Illinois,10109-9760,COMMERCIAL,1918
10110/9ca40,LWXLCV9O+W66-LWXLCV9O+PR0-LWXLCV9O+4ZH,"336,298",1,15135 S Arborvitae Boulevard,Valuation Management Group,EnergyTown,Illinois,10110-5087,COMMERCIAL,1961
10109/f76ba,IUK2WHVD+AFF-IUK2WHVD+35U-IUK2WHVD+UWE,"382,980",1,228511 NW Van Buren Street,Hipercept,EnergyTown,Illinois,10109-1487,COMMERCIAL,1988
10108/d2b1e,XZD8XQPQ+143-XZD8XQPQ+YAB-XZD8XQPQ+WNF,"121,363",1,196903 E Ford Loop,Accurate Group,EnergyTown,Illinois,10108-6632,COMMERCIAL,1959
10108/e426c,I5S5778Q+50T-I5S5778Q+QPO-I5S5778Q+FQU,"392,035",1,154432 SW Apple Loop,Nest Realty,EnergyTown,Illinois,10108-8988,CONDO,
10102/4209b,7O4BTWL4+D06-7O4BTWL4+0BF-7O4BTWL4+R65,"94,719",1,108098 W Roosevelt Way,JWB Real Estate Companies,EnergyTown,Illinois,10102-2486,COMMERCIAL,1957
10105/28ccf,8N1AXF8H+TCH-8N1AXF8H+MXQ-8N1AXF8H+6F5,"281,401",1,163777 SW Hayes Boulevard,Real Property Management,EnergyTown,Illinois,10105-6858,COMMERCIAL,2001
10108/10f0e,P1E3XN33+HIH-P1E3XN33+9HK-P1E3XN33+FWY,"221,632",1,188145 SW Palm Way,Distinctive Properties,EnergyTown,Illinois,10108-6940,HOTELS/MOTELS,1922
10107/24321,G64DZGHN+VRX-G64DZGHN+Y77-G64DZGHN+GDB,"323,984",1,99676 N Oak Lane,Clear Title Agency of AZ,EnergyTown,Illinois,10107-4524,COMMERCIAL,1985
10103/eafdd,F96PBVF2+5U9-F96PBVF2+PYC-F96PBVF2+S66,"75,130",1,206960 S Guava Loop,Trust Field Services,EnergyTown,Illinois,10103-6457,HOTELS/MOTELS,1956
10103/43575,2OFCG3YD+S35-2OFCG3YD+VGN-2OFCG3YD+6E4,"115,726",1,216971 NW True Way,GRS Group,EnergyTown,Illinois,10103-5749,HOTELS/MOTELS,1963
10110/c9bd3,FML1QIMD+IPF-FML1QIMD+GDF-FML1QIMD+BYQ,240292 sq. ft.,1,190631 S Locust Lane,Renters Warehouse,EnergyTown,Illinois,10110-9828,COMMERCIAL,1940
10105/b6224,ISYNVD5C+2FQ-ISYNVD5C+A2L-ISYNVD5C+3UC,"250,518",1,25085 E Hemlock Highway,Reliant Realty,EnergyTown,Illinois,10105-6170,COMMERCIAL,1956
10110/cbc8e,ZRYPYXWF+QLM-ZRYPYXWF+JHH-ZRYPYXWF+108,"187,229",1,202071 W Cantaloupe Highway,Meridian Pacific Properties,EnergyTown,Illinois,10110-7715,COMMERCIAL,1955
10102/2fed7,1TGQK863+PCG-1TGQK863+HOW-1TGQK863+OEC,"68,026",1,166985 N Ash Court,Guaranteed Rate,EnergyTown,Illinois,10102-1159,COMMERCIAL,1964
10105/33b5d,LBC1Z0RK+1JC-LBC1Z0RK+XGX-LBC1Z0RK+ANS,"137,058",1,236248 NE Apples Avenue,JMA Properties,EnergyTown,Illinois,10105-9531,COMMERCIAL,1984
10104/ca2fa,BC1T5U64+220-BC1T5U64+ZIL-BC1T5U64+YF4,"334,977",1,134273 SW Orange Street,NTP Wireless,EnergyTown,Illinois,10104-5033,COMMERCIAL,1962
10105/b15e7,HOPPZAPP+5J2-HOPPZAPP+9ND-HOPPZAPP+NCF,"254,468",1,139068 NE Coolidge Loop,Teles Properties,EnergyTown,Illinois,10105-1800,COMMERCIAL,1983
10103/69b9f,J6SZVUK2+YVD-J6SZVUK2+HN3-J6SZVUK2+U2Z,"319,176",1,118829 W Reagan Avenue,Kinder Reese,EnergyTown,Illinois,10103-6010,COMMERCIAL,1963
10107/908be,KCIRJU2X+J5D-KCIRJU2X+GIL-KCIRJU2X+WOA,"134,266",1,75381 NE Madison Road,Cal-American Homes,EnergyTown,Illinois,10107-6450,COMMERCIAL,1983
10103/b3ca4,059CZXHK+J83-059CZXHK+ZWW-059CZXHK+05X,"97,919",1,237608 S Grapes Street,ePropertySites.com,EnergyTown,Illinois,10103-6859,COMMERCIAL,2005
10108/ad0e2,PHLQD3ZG+6JK-PHLQD3ZG+A7Z-PHLQD3ZG+ELB,"207,918",1,67271 SW Melon Boulevard,NathanTabor.com,EnergyTown,Illinois,10108-6983,COMMERCIAL,2006
10102/69847,JMX3BB1K+STW-JMX3BB1K+CE2-JMX3BB1K+IP2,"298,175",1,235306 NE Hazel Road,Urban Lending Solutions,EnergyTown,Illinois,10102-2922,COMMERCIAL,1941
10101/27d4b,F4WA3VKD+NIB-F4WA3VKD+469-F4WA3VKD+UV7,"288,029",1,16643 W Ford Alley,Keller Williams Capital Properties,EnergyTown,Illinois,10101-3986,COMMERCIAL,1977
10103/dbe92,LDY85YO8+8BK-LDY85YO8+4TD-LDY85YO8+1DB,"117,962",1,184910 SE Melon Street,Real Capital Markets,EnergyTown,Illinois,10103-4111,RESIDENTIAL-MULTI FAMILY,1923
10109/ef4cb,K2NO0FCI+6DG-K2NO0FCI+JV7-K2NO0FCI+4ZX,"262,161",1,8656 SE Cypress Boulevard,DLP Realty,EnergyTown,Illinois,10109-4267,COMMERCIAL,1968
10101/ee51f,ZP777QJN+BLN-ZP777QJN+ZNG-ZP777QJN+H8M,"336,155",1,244944 SE Taft Loop,World Wide Land Transfer,EnergyTown,Illinois,10101-6469,COMMERCIAL,1989
10110/b59c7,PKDECWHC+0TN-PKDECWHC+GZJ-PKDECWHC+5XQ,"283,500",1,106522 SW Pineapple Lane,HousingWire,EnergyTown,Illinois,10110-7341,COMMERCIAL,1974
10110/b0483,E622OF4U+E8W-E622OF4U+CS9-E622OF4U+7I0,"365,531",1,244081 E Papaya Avenue,Nationwide Title Clearing,EnergyTown,Illinois,10110-9324,COMMERCIAL,1950
10105/fdabc,0LIHXDEJ+M2M-0LIHXDEJ+H39-0LIHXDEJ+XJO,"238,015",1,58478 N Polk Loop,Platinum Realty,EnergyTown,Illinois,10105-6431,COMMERCIAL,1958
10110/e77c3,70L5YJMC+OGB-70L5YJMC+2IU-70L5YJMC+R35,"142,730",1,211348 E Kennedy Street,US Appraisal Group,EnergyTown,Illinois,10110-1558,COMMERCIAL,2002
10105/c1dd0,SQWZRIK7+7NO-SQWZRIK7+91C-SQWZRIK7+OEC,"196,057",1,162926 S Citron Boulevard,The Menkiti Group,EnergyTown,Illinois,10105-9644,COMMERCIAL,1913
10102/53bcc,F0WO9UJD+BWV-F0WO9UJD+ZHH-F0WO9UJD+ZH5,"337,327",1,43200 N Carissa Boulevard,Elite Pacific Properties,EnergyTown,Illinois,10102-7533,COMMERCIAL,1969
10108/4c062,LO4DR678+37E-LO4DR678+EI2-LO4DR678+HGN,"128,696",1,80535 W Fillmore Avenue,Samuel Scott Financial Group,EnergyTown,Illinois,10108-6485,COMMERCIAL,1971
10105/4be8d,QD2NMQDY+VPN-QD2NMQDY+MK8-QD2NMQDY+8S4,"352,478",1,217657 E Banana Road,Professinal Home Buyers,EnergyTown,Illinois,10105-8393,COMMERCIAL,1924
10110/94692,NN5KROGA+N3O-NN5KROGA+EWD-NN5KROGA+YH1,"59,501",1,101963 S Van Buren Street,Maximum One Realty Greater Atlanta,EnergyTown,Illinois,10110-4019,HOTELS/MOTELS,1928
10110/bc316,ZI5KX6E9+GG2-ZI5KX6E9+Y1I-ZI5KX6E9+VN5,"378,745",1,80310 N Myrtle Court,Streetsense,EnergyTown,Illinois,10110-6067,COMMERCIAL,1964
10108/f5eea,GJAXQ12W+Q2D-GJAXQ12W+6FT-GJAXQ12W+HIU,"389,401",1,223819 NW Pierce Way,Boulder Creek Builders,EnergyTown,Illinois,10108-1244,COMMERCIAL CONDO,
10105/f1f2e,5B16I6KN+HGA-5B16I6KN+XZK-5B16I6KN+SX1,"126,374",1,197892 NW Carissa Court,ATG Title,EnergyTown,Illinois,10105-2179,RESIDENTIAL-MULTI FAMILY,1919
10106/fdb45,JDGT3QNJ+4A9-JDGT3QNJ+E0X-JDGT3QNJ+VFA,"51,843",1,115504 S Guava Avenue,LGI Development,EnergyTown,Illinois,10106-4109,RESIDENTIAL-MULTI FAMILY,1909
10108/8ac1a,P86NK3PY+921-P86NK3PY+ELZ-P86NK3PY+BN5,"146,667",1,244589 SW True Street,Tim O'Brien Homes,EnergyTown,Illinois,10108-3112,RESIDENTIAL-MULTI FAMILY,1926
10101/3f4f9,BLE8P6WE+X6U-BLE8P6WE+2SE-BLE8P6WE+GOE,"235,166",1,143991 SW Harrison Way,McGeough Lamacchia Realty,EnergyTown,Illinois,10101-7553,RESIDENTIAL-MULTI FAMILY,0
10102/efcbd,1FI63GEL+545-1FI63GEL+5EC-1FI63GEL+VMT,"88,258",1,221447 NE Pear Boulevard,Bean Group,EnergyTown,Illinois,10102-9150,RESIDENTIAL-MULTI FAMILY,1918
10109/5500f,QRZ4850O+GPP-QRZ4850O+F3S-QRZ4850O+FDD,"200,723",1,62278 SW Apples Court,Gorilla Capital,EnergyTown,Illinois,10109-7024,RESIDENTIAL-MULTI FAMILY,1920
10101/528fc,9Z5KCOLS+IBH-9Z5KCOLS+BP2-9Z5KCOLS+6RW,"210,140",1,98737 NW Van Buren Court,1st Equity,EnergyTown,Illinois,10101-1548,COMMERCIAL,0
10110/c74be,3427JI48+GGQ-3427JI48+IS5-3427JI48+MWO,"388,106",1,187913 SE Apple Way,Realty ONE Group,EnergyTown,Illinois,10110-6183,HOTELS/MOTELS,1968
10106/b98be,FLC69YSJ+FSK-FLC69YSJ+Y2Z-FLC69YSJ+2IN,"169,687",1,202626 W Olive Road,Asset Realty Group,EnergyTown,Illinois,10106-8096,HOTELS/MOTELS,1960
10108/5d71a,7YB3VN3M+AU4-7YB3VN3M+XQM-7YB3VN3M+54T,"254,429",1,17837 SW Birch Way,Movoto,EnergyTown,Illinois,10108-9758,HOTELS/MOTELS,1964
10110/c2353,59BFZ590+1XN-59BFZ590+JSL-59BFZ590+YLA,"392,952",1,149484 N Coolidge Highway,American Eagle Mortgage,EnergyTown,Illinois,10110-4583,COMMERCIAL,1909
10103/3de2a,ZV8XPGAR+6ZK-ZV8XPGAR+HVU-ZV8XPGAR+YKF,"307,659",1,199582 E Maple Highway,@Properties,EnergyTown,Illinois,10103-3267,CONDO,
10108/f6ce6,LWZ0JBQV+Z3G-LWZ0JBQV+MJ2-LWZ0JBQV+UWR,"206,691",1,138030 SE Kennedy Street,Conservice,EnergyTown,Illinois,10108-7794,COMMERCIAL,1962
10109/2a3ea,HG9S499T+YQ0-HG9S499T+TZI-HG9S499T+QPU,"160,653",3,66777 N Pear Alley,HomeSmart,EnergyTown,Illinois,10109-5867,COMMERCIAL,1991
10104/6ed43,UKB01J1J+GD3-UKB01J1J+VTX-UKB01J1J+M0T,"397,687",1,170273 SW Redwood Highway,MG Properties Group,EnergyTown,Illinois,10104-4559,RESIDENTIAL-MULTI FAMILY,1952
10106/76d4a,74VPP96I+IFK-74VPP96I+SGB-74VPP96I+BV2,"250,805",1,136273 W Grapefruit Highway,Pacific Union International,EnergyTown,Illinois,10106-5430,COMMERCIAL,1991
10105/67c36,TTXT4ALQ+IL5-TTXT4ALQ+T8P-TTXT4ALQ+BFA,"322,971",1,61537 SE Pineapple Highway,Sperry Van Ness International,EnergyTown,Illinois,10105-2899,COMMERCIAL,1968
10105/5fa0a,ZYXVUXUQ+YYT-ZYXVUXUQ+QA7-ZYXVUXUQ+Q1A,"297,375",1,179234 SE Juniper Way,Asset Plus Companies,EnergyTown,Illinois,10105-1016,COMMERCIAL,1970
10105/77ead,YL5S5OYD+3Y9-YL5S5OYD+5ME-YL5S5OYD+I8Y,"387,617",1,76451 N Honeylocust Court,Prudential Americana Group Realtors,EnergyTown,Illinois,10105-8846,COMMERCIAL,1981
10108/9e9d8,WHEUYENB+DF7-WHEUYENB+OSF-WHEUYENB+6WD,"247,361",1,31707 W Cantaloupe Loop,ISGN,EnergyTown,Illinois,10108-4342,COMMERCIAL,1974
10102/15661,CK70IEET+39N-CK70IEET+93P-CK70IEET+F0L,"311,618",1,181742 SW Walnut Way,Kidder Mathews,EnergyTown,Illinois,10102-6740,COMMERCIAL,1921
10106/4875d,7ZN6J7T8+449-7ZN6J7T8+NJF-7ZN6J7T8+BM5,"73,238",1,23901 E Pineapple Road,Levrose Commercial Real Estate,EnergyTown,Illinois,10106-6999,COMMERCIAL,1959
10105/f9e50,FF4QLBJ4+XNZ-FF4QLBJ4+BRG-FF4QLBJ4+LL6,"266,330",1,165141 S Kennedy Lane,Pro Teck Valuation Services,EnergyTown,Illinois,10105-2788,COMMERCIAL,1988
10108/a1287,R5WZMEHA+W7P-R5WZMEHA+VRW-R5WZMEHA+9KP,"239,314",1,203344 SE Carissa Road,The Mount Vernon Company,EnergyTown,Illinois,10108-5831,COMMERCIAL,2007
10106/c29bc,7QS4MILP+7ZN-7QS4MILP+YP1-7QS4MILP+O7U,"347,415",1,213684 NE Pierce Avenue,Select Office Suites,EnergyTown,Illinois,10106-8797,COMMERCIAL,1972
10101/41bb1,GB7LE1UN+N2S-GB7LE1UN+409-GB7LE1UN+9L1,"388,473",1,236410 NW Cedar Way,Schmidt Real Estate,EnergyTown,Illinois,10101-6831,HOTELS/MOTELS,1944
10106/f2249,U2ORH1HB+WNR-U2ORH1HB+KQA-U2ORH1HB+8PT,"84,149",1,167885 SW Elm Alley,Oakbrook,EnergyTown,Illinois,10106-4962,COMMERCIAL,1963
10106/55425,S3274789+2WH-S3274789+OOU-S3274789+JMQ,"169,765",1,75548 S Mango Boulevard,ERA Sunrise Realty,EnergyTown,Illinois,10106-2227,COMMERCIAL,1923
10109/bbae0,UDV00VUY+F8O-UDV00VUY+UJR-UDV00VUY+GQW,"244,227",1,96925 SE True Lane,Keller Williams Realty,EnergyTown,Illinois,10109-3901,COMMERCIAL,1964
10109/4c951,MKV0KWS2+NEZ-MKV0KWS2+BWD-MKV0KWS2+2XX,"338,154",1,67194 NW Mahogany Avenue,CWS Corporate Leasing,EnergyTown,Illinois,10109-4805,HOTELS/MOTELS,1927
10104/b5f46,I48MG36S+4Q3-I48MG36S+ODI-I48MG36S+VND,"353,448",1,151935 N Fillmore Street,Occidental Management,EnergyTown,Illinois,10104-3163,COMMERCIAL,1959
10107/abab4,T3HX2I84+D3H-T3HX2I84+KOJ-T3HX2I84+T8A,"270,014",1,113976 N Lincoln Highway,Morris Hardwick Schneider/Landcastle Title,EnergyTown,Illinois,10107-7700,COMMERCIAL,1979
10102/cdc40,XXQD074A+WHA-XXQD074A+530-XXQD074A+7NC,"120,932",1,45612 E Garfield Way,Capital Title of Texas,EnergyTown,Illinois,10102-9747,COMMERCIAL,1929
10102/d9050,LY899BV0+6Z9-LY899BV0+PIQ-LY899BV0+SWB,"263,077",1,137291 SW Buchanan Highway,American Reporting,EnergyTown,Illinois,10102-5447,RESIDENTIAL-MULTI FAMILY,1932
10107/65e4a,J0F4EHW1+AG4-J0F4EHW1+C2E-J0F4EHW1+WM7,"320,699",1,103731 E Cypress Highway,Real Freedom,EnergyTown,Illinois,10107-8588,RESIDENTIAL-MULTI FAMILY,2002
10107/3a8e7,LYSAV091+SZ0-LYSAV091+698-LYSAV091+A66,"215,904",1,240367 S Cordia Court,Temporary Housing Directory,EnergyTown,Illinois,10107-9150,COMMERCIAL,1956
10108/64fa4,2D2VE9FW+XKN-2D2VE9FW+B8P-2D2VE9FW+S6S,381980 sf,10,89391 NE Roosevelt Street,MileStone Community Builders,EnergyTown,Illinois,10108-7483,COMMERCIAL,1875
10110/2ca1e,WL3NPQDN+31R-WL3NPQDN+2B0-WL3NPQDN+9P1,"317,353",1,31553 S Buchanan Road,Pangea Properties,EnergyTown,Illinois,10110-9396,RESIDENTIAL-MULTI FAMILY,1978
10108/6236c,7PEYCKTE+H0Y-7PEYCKTE+9G3-7PEYCKTE+R7W,"50,477",1,92200 W Truman Loop,Matt Martin Real Estate Management,EnergyTown,Illinois,10108-8383,COMMERCIAL,1910
10106/11169,SFDRLV1R+MVZ-SFDRLV1R+ZIN-SFDRLV1R+E4P,"76,497",1,165348 E Taylor Alley,Celerity Ventures,EnergyTown,Illinois,10106-3406,COMMERCIAL,2012
10106/2cb39,VPYDGP8R+UBH-VPYDGP8R+NW2-VPYDGP8R+DIC,"187,605",1,13985 SE Van Buren Street,Marketplace Homes,EnergyTown,Illinois,10106-8929,COMMERCIAL,1904
10102/8dfc7,2XUSLO6I+RDT-2XUSLO6I+NWL-2XUSLO6I+UJO,"149,252",1,120376 SW Wilson Boulevard,Apartment List,EnergyTown,Illinois,10102-6267,CONDO,
10101/36bfc,KAV64TL1+FU0-KAV64TL1+U3W-KAV64TL1+42E,"302,514",1,199110 W Myrtle Boulevard,Econohomes,EnergyTown,Illinois,10101-9430,RESIDENTIAL-MULTI FAMILY,2002
10110/21619,KHR7B739+HII-KHR7B739+8XC-KHR7B739+Y9F,"373,392",1,122080 E Oak Way,PropertyRate,EnergyTown,Illinois,10110-8070,RESIDENTIAL-MULTI FAMILY,2004
10105/67bb0,S5PLMKFJ+YWR-S5PLMKFJ+4Y3-S5PLMKFJ+JGH,"88,389",1,189035 SE Larch Lane,Landmark Network,EnergyTown,Illinois,10105-5219,CONDO,
10108/67de8,CTCA3YU9+XSZ-CTCA3YU9+I3U-CTCA3YU9+1NC,"230,741",1,142115 W Pineapple Way,Memphis Invest,EnergyTown,Illinois,10108-4608,CONDO,
10103/a7c22,X3RPAW4W+REA-X3RPAW4W+FFZ-X3RPAW4W+E4G,"349,971",1,3755 SE Johnson Court,ACT Appraisal,EnergyTown,Illinois,10103-3674,CONDO,
10107/9d329,K7B05V52+419-K7B05V52+Y1W-K7B05V52+V7D,"253,772",1,10699 S Redwood Lane,Innotion Enterprises,EnergyTown,Illinois,10107-8716,CONDO,
10106/66eab,RN7FTBAY+XIX-RN7FTBAY+57G-RN7FTBAY+SBU,"212,618",1,72450 SE Tanoak Road,The Force Realty,EnergyTown,Illinois,10106-8952,RESIDENTIAL-MULTI FAMILY,1966
10104/d3d49,U4NSOGJG+VPD-U4NSOGJG+V6Y-U4NSOGJG+IWK,"324,573",1,46768 N Oak Road,PalmerHouse Properties,EnergyTown,Illinois,10104-2210,RESIDENTIAL-MULTI FAMILY,1980
10104/29b33,CWLTNYLM+G28-CWLTNYLM+0I0-CWLTNYLM+5K7,"56,335",1,63924 S Yew Highway,CoesterVMS,EnergyTown,Illinois,10104-4769,COMMERCIAL,1999
10104/46025,3ERVN2ET+BXZ-3ERVN2ET+RUI-3ERVN2ET+UN0,"150,490",1,200869 S Incense Way,Hawaii Life,EnergyTown,Illinois,10104-7106,CONDO,
10107/6a1f6,TQUND4AP+4EE-TQUND4AP+HU1-TQUND4AP+J1I,"342,087",1,145903 S Jackson Loop,Apex Home Loans,EnergyTown,Illinois,10107-1226,RESIDENTIAL-MULTI FAMILY,1965
10105/4b073,JTE3SL59+67K-JTE3SL59+5X8-JTE3SL59+2M0,"268,758",1,22500 E Spruce Court,Stress Free Property Management,EnergyTown,Illinois,10105-1995,RESIDENTIAL-MULTI FAMILY,1965
10110/62464,RH39UIW9+20N-RH39UIW9+RKV-RH39UIW9+KVR,"100,687",1,213859 W Tanoak Court,Fairplay Financial,EnergyTown,Illinois,10110-9750,RESIDENTIAL-MULTI FAMILY,1930
10104/53e64,WWRTDPD8+4LS-WWRTDPD8+W4T-WWRTDPD8+X64,"346,940",1,33080 SE True Loop,Nationwide Appraisal Network,EnergyTown,Illinois,10104-1169,HOTELS/MOTELS,1965
10109/b28a9,3EZSYSFA+CLM-3EZSYSFA+GTR-3EZSYSFA+O1G,"125,112",1,159546 SW Oak Highway,Robert Paul Properties,EnergyTown,Illinois,10109-3480,RESIDENTIAL-MULTI FAMILY,1936
10105/19a7c,68NQRZS7+8S1-68NQRZS7+KXS-68NQRZS7+3XG,"339,416",1,27407 W Clinton Way,Trulia,EnergyTown,Illinois,10105-8084,RESIDENTIAL-MULTI FAMILY,2002
10109/5a6d5,TF1OFEOK+7BM-TF1OFEOK+YOL-TF1OFEOK+AZ7,"293,421",1,207224 W Clinton Boulevard,The Ruby Group,EnergyTown,Illinois,10109-5381,HOTELS/MOTELS,2001
10109/eb8d0,VDIDW728+VXF-VDIDW728+HYY-VDIDW728+YDU,"388,041",3,148624 SW Clinton Loop,Valuation Management Group,EnergyTown,Illinois,10109-6487,COMMERCIAL,1930
10104/70271,2NONLLB4+HH9-2NONLLB4+0KM-2NONLLB4+96P,"333,353",1,159643 NW True Avenue,Hipercept,EnergyTown,Illinois,10104-4701,CONDO,
10108/1b446,IPD6IKSW+MXF-IPD6IKSW+JO8-IPD6IKSW+NSU,"235,225",1,25104 NW Arthur Lane,Accurate Group,EnergyTown,Illinois,10108-4108,CONDO,
10103/a6deb,PI4XU02H+YX4-PI4XU02H+CDM-PI4XU02H+AG3,"271,570",1,58847 W Lincoln Lane,Nest Realty,EnergyTown,Illinois,10103-2443,COMMERCIAL CONDO,
10102/1f175,CBF7WWLB+5D5-CBF7WWLB+OLG-CBF7WWLB+USA,"142,128",1,204239 NW Wilson Loop,JWB Real Estate Companies,EnergyTown,Illinois,10102-7194,COMMERCIAL,1973
10106/a3685,9O9637KM+XQQ-9O9637KM+8Y3-9O9637KM+9R4,"160,444",1,114186 SE Obama Road,Real Property Management,EnergyTown,Illinois,10106-7986,COMMERCIAL,1967
10108/e225d,5TU7XUAH+86F-5TU7XUAH+CY4-5TU7XUAH+5XX,"234,977",1,164223 SW Guava Loop,Distinctive Properties,EnergyTown,Illinois,10108-6807,COMMERCIAL,1969
10108/23359,6O9XJEWZ+7TP-6O9XJEWZ+C62-6O9XJEWZ+RM3,"382,843",1,114234 NW Bush Loop,Clear Title Agency of AZ,EnergyTown,Illinois,10108-5455,COMMERCIAL,1970
10108/7a748,YWYU8CPD+I8F-YWYU8CPD+31F-YWYU8CPD+DPQ,"271,215",1,132432 W McKinley Loop,Trust Field Services,EnergyTown,Illinois,10108-2605,COMMERCIAL,1976
10109/6e78b,PEQ7BBZ5+08L-PEQ7BBZ5+LV1-PEQ7BBZ5+5LY,"303,366",1,52270 SE Elm Alley,GRS Group,EnergyTown,Illinois,10109-2951,COMMERCIAL,1980
10110/99c47,5KZ6OYW1+ZDY-5KZ6OYW1+691-5KZ6OYW1+M46,"364,578",1,136864 W Apples Way,Renters Warehouse,EnergyTown,Illinois,10110-5685,COMMERCIAL,1981
10106/69ccc,F8ZNG53C+G75-F8ZNG53C+M7P-F8ZNG53C+XS7,"67,421",1,159684 W Ford Way,Reliant Realty,EnergyTown,Illinois,10106-5809,COMMERCIAL,1964
10105/6b7c3,CB9VCX7T+2LV-CB9VCX7T+0Q8-CB9VCX7T+2XQ,"371,595",1,108883 E Filbert Road,Meridian Pacific Properties,EnergyTown,Illinois,10105-4759,HOTELS/MOTELS,1962
10104/7519f,7MX5BDUQ+TVB-7MX5BDUQ+D40-7MX5BDUQ+BO1,"115,886",1,71395 N Horsechestnut Highway,Guaranteed Rate,EnergyTown,Illinois,10104-8687,COMMERCIAL,1981
10104/9cd14,78FKCO1A+Y6O-78FKCO1A+4DV-78FKCO1A+1YX,"357,695",1,66883 SW Date Street,JMA Properties,EnergyTown,Illinois,10104-3983,HOTELS/MOTELS,1982
10108/7888c,74Z2FNTK+Z8L-74Z2FNTK+0E5-74Z2FNTK+TE8,"54,718",1,74477 SW Honeylocust Road,NTP Wireless,EnergyTown,Illinois,10108-8429,HOTELS/MOTELS,1967
10107/42314,3A8LTEEV+8KB-3A8LTEEV+D3U-3A8LTEEV+55V,"377,323",1,31654 S Olive Lane,Teles Properties,EnergyTown,Illinois,10107-2780,COMMERCIAL,1981
10109/afa2e,TLATU761+97Y-TLATU761+UST-TLATU761+2FL,"93,436",1,172390 NE Hayes Avenue,Kinder Reese,EnergyTown,Illinois,10109-7580,COMMERCIAL,1926
10105/73066,9NXXJ2C0+5PT-9NXXJ2C0+K8S-9NXXJ2C0+JM5,"351,018",1,153897 E Carissa Court,Cal-American Homes,EnergyTown,Illinois,10105-9243,COMMERCIAL,1979
10107/6f0e7,5DZ1ZH3H+J6K-5DZ1ZH3H+RUM-5DZ1ZH3H+CBH,"333,958",1,232993 SE Eisenhower Alley,ePropertySites.com,EnergyTown,Illinois,10107-6943,COMMERCIAL,1980
10101/5c1d9,G4WGLH2W+FAK-G4WGLH2W+D3X-G4WGLH2W+TZK,"166,581",1,22214 N Pineapple Court,NathanTabor.com,EnergyTown,Illinois,10101-7282,COMMERCIAL,1985
10106/b1e7f,DIEDFD1L+TB8-DIEDFD1L+UJS-DIEDFD1L+FOQ,"362,883",1,239342 NW Roosevelt Loop,Urban Lending Solutions,EnergyTown,Illinois,10106-4097,COMMERCIAL,1950
10106/f1d83,N0MEQJ1R+9A7-N0MEQJ1R+5R9-N0MEQJ1R+QTD,"378,701",1,168893 E Johnson Way,Keller Williams Capital Properties,EnergyTown,Illinois,10106-9237,COMMERCIAL,1954
10105/added,J046ETV9+ZYP-J046ETV9+ORS-J046ETV9+26Q,"345,669",1,188620 SE Lemon Street,Real Capital Markets,EnergyTown,Illinois,10105-9486,COMMERCIAL,1964
10101/4332d,RZIXKXVC+ZOB-RZIXKXVC+Y9M-RZIXKXVC+JPK,"104,657",1,80678 NW Pineapple Avenue,DLP Realty,EnergyTown,Illinois,10101-3961,COMMERCIAL,1969
10103/5cca3,NY43KLWK+MM8-NY43KLWK+0DQ-NY43KLWK+BHP,"245,179",1,158979 NE Myrtle Way,World Wide Land Transfer,EnergyTown,Illinois,10103-1427,COMMERCIAL,1929
10106/43ccc,CTJIQJH0+TCZ-CTJIQJH0+UKL-CTJIQJH0+APG,"228,634",1,81178 SW Olive Highway,HousingWire,EnergyTown,Illinois,10106-3927,COMMERCIAL,1987
10103/e3bea,4NF7UXLK+G2H-4NF7UXLK+GI9-4NF7UXLK+MSQ,"323,523",1,85890 N Ash Road,Nationwide Title Clearing,EnergyTown,Illinois,10103-9836,COMMERCIAL,1921
10104/87ce6,WPYNWC0W+54C-WPYNWC0W+FTR-WPYNWC0W+UFE,"157,195",1,51616 NW Harrison Street,Platinum Realty,EnergyTown,Illinois,10104-2116,COMMERCIAL,1959
10105/26c8f,BSGDEDBX+N74-BSGDEDBX+X1Z-BSGDEDBX+ZRW,"150,208",1,165382 W Chestnut Street,US Appraisal Group,EnergyTown,Illinois,10105-3212,COMMERCIAL,1910
10107/6ec06,ZDQT5T84+1PE-ZDQT5T84+7YJ-ZDQT5T84+MYT,"99,405",1,118538 NW Washington Avenue,The Menkiti Group,EnergyTown,Illinois,10107-1806,COMMERCIAL,1968
10101/def8d,1VX2TMXS+63G-1VX2TMXS+AXY-1VX2TMXS+XPG,"335,901",1,31685 SE Melon Lane,Elite Pacific Properties,EnergyTown,Illinois,10101-8377,COMMERCIAL,1982
10107/6e4da,KB05L6EV+HLL-KB05L6EV+BZU-KB05L6EV+UNK,"291,525",1,169194 W Birch Court,Samuel Scott Financial Group,EnergyTown,Illinois,10107-7428,COMMERCIAL,1988
10105/4eef8,F8NNZ22C+941-F8NNZ22C+H8I-F8NNZ22C+XB1,"385,900",1,83997 W Cordia Way,Professinal Home Buyers,EnergyTown,Illinois,10105-9075,COMMERCIAL,1986
10105/c3f95,LWXAUEVQ+DCU-LWXAUEVQ+71I-LWXAUEVQ+SGG,"326,251",1,41342 E Hawthorn Road,Maximum One Realty Greater Atlanta,EnergyTown,Illinois,10105-1727,COMMERCIAL CONDO,
10110/72856,CVI20ZAD+AJ8-CVI20ZAD+H0M-CVI20ZAD+X57,"290,191",1,32998 SW Adams Street,Streetsense,EnergyTown,Illinois,10110-3015,HOTELS/MOTELS,1928
10101/4aea9,EI4WG0T3+SUR-EI4WG0T3+8EU-EI4WG0T3+LTT,"302,708",1,166373 S Cottonwood Court,Boulder Creek Builders,EnergyTown,Illinois,10101-7698,COMMERCIAL,1911
10103/1fa3a,WNCWSHXH+FCQ-WNCWSHXH+CAM-WNCWSHXH+1QK,"136,154",1,76194 NW Hemlock Highway,ATG Title,EnergyTown,Illinois,10103-8317,COMMERCIAL,1982
10106/a1b27,LPTLKHOM+VUN-LPTLKHOM+AO2-LPTLKHOM+XHO,"296,910",1,97743 NE Monroe Road,LGI Development,EnergyTown,Illinois,10106-3012,COMMERCIAL,1983
10102/e53b2,GZWLXDER+ZYM-GZWLXDER+QF4-GZWLXDER+FXF,"326,269",1,170082 NW Pine Lane,Tim O'Brien Homes,EnergyTown,Illinois,10102-1604,COMMERCIAL,1993
10109/6df49,E037I2P2+XZY-E037I2P2+672-E037I2P2+427,"82,535",1,188036 SW Dogwood Avenue,McGeough Lamacchia Realty,EnergyTown,Illinois,10109-6523,COMMERCIAL,1922
10101/74cd0,Z9SQIZYH+0SQ-Z9SQIZYH+5W7-Z9SQIZYH+W04,"155,648",1,100644 SE Wilson Avenue,Bean Group,EnergyTown,Illinois,10101-2774,COMMERCIAL,1907
10106/28929,DXS6YBBG+Q5G-DXS6YBBG+U93-DXS6YBBG+99I,"213,345",1,180840 SW Cottonwood Court,Gorilla Capital,EnergyTown,Illinois,10106-2771,COMMERCIAL,1931
10103/d02b7,LXRNTRVJ+JYO-LXRNTRVJ+PCU-LXRNTRVJ+C8H,"179,944",1,72611 W Date Lane,1st Equity,EnergyTown,Illinois,10103-2777,COMMERCIAL,1936
10108/e6a79,K5YYXHI9+IIS-K5YYXHI9+LSM-K5YYXHI9+BQ8,"98,406",1,96477 SW Peach Loop,Realty ONE Group,EnergyTown,Illinois,10108-9371,RESIDENTIAL-MULTI FAMILY,1912
10101/2417d,PFW9ICPI+36D-PFW9ICPI+VCW-PFW9ICPI+VUM,"330,369",1,4455 N Ash Lane,Asset Realty Group,EnergyTown,Illinois,10101-7497,COMMERCIAL,1982
10106/e6a4d,HWHM4AO0+WMX-HWHM4AO0+3XZ-HWHM4AO0+RKZ,"353,885",1,40486 SE Clinton Highway,Movoto,EnergyTown,Illinois,10106-9149,COMMERCIAL,1991
10107/edab1,ZYOT5IYM+O3M-ZYOT5IYM+PU3-ZYOT5IYM+5YF,"198,717",1,162766 SE Hemlock Lane,American Eagle Mortgage,EnergyTown,Illinois,10107-1562,COMMERCIAL,1897
10102/53af9,R3XKN9JV+HCV-R3XKN9JV+DFE-R3XKN9JV+4TB,"285,660",1,98775 N Lime Boulevard,@Properties,EnergyTown,Illinois,10102-4473,COMMERCIAL,1986
10110/7dff2,30ODOUKS+EE5-30ODOUKS+QM6-30ODOUKS+1RD,"246,311",1,241932 S Hazel Avenue,Conservice,EnergyTown,Illinois,10110-2189,COMMERCIAL,1934
10108/e4265,WAI8LY1C+AO4-WAI8LY1C+CVF-WAI8LY1C+RIG,"367,192",3,243915 NW Apples Alley,HomeSmart,EnergyTown,Illinois,10108-7544,COMMERCIAL,1917
10101/39de6,33XQGN2C+9IM-33XQGN2C+EBQ-33XQGN2C+HPJ,"179,269",6,2187 SW Basswood Court,MG Properties Group,EnergyTown,Illinois,10101-9691,COMMERCIAL,1982
10102/c98e5,0GJK8BDR+KMQ-0GJK8BDR+1Y4-0GJK8BDR+0U6,"228,013",1,244939 W Birch Court,Pacific Union International,EnergyTown,Illinois,10102-7526,COMMERCIAL,1999
10101/43c28,0Y2383QF+OFW-0Y2383QF+Z98-0Y2383QF+1R8,"197,135",1,105206 N Alder Court,Sperry Van Ness International,EnergyTown,Illinois,10101-5103,COMMERCIAL,1986
10103/4eb74,B0SYZWUR+BL8-B0SYZWUR+XX4-B0SYZWUR+VBO,"54,433",1,6379 SW Guava Road,Asset Plus Companies,EnergyTown,Illinois,10103-1897,HOTELS/MOTELS,1919
10104/fba7a,BB29KHZ6+JOW-BB29KHZ6+2WJ-BB29KHZ6+APR,"360,367",1,76360 SE Spruce Court,Prudential Americana Group Realtors,EnergyTown,Illinois,10104-2372,CONDO,
10102/6032c,M5QCN237+OR5-M5QCN237+5YF-M5QCN237+XV9,"399,578",1,206422 NW Carissa Way,ISGN,EnergyTown,Illinois,10102-6958,CONDO,
10107/30f5d,DGDLQ3S3+0UI-DGDLQ3S3+1H1-DGDLQ3S3+I3O,"340,889",1,200054 NE Apple Avenue,Kidder Mathews,EnergyTown,Illinois,10107-9387,RESIDENTIAL-MULTI FAMILY,2004
10102/ee305,YHGR6ANW+QEY-YHGR6ANW+8BP-YHGR6ANW+60A,"311,692",1,67793 NW Dogwood Alley,Levrose Commercial Real Estate,EnergyTown,Illinois,10102-6936,CONDO,
10109/4c1c3,ETHTLE4X+ZGO-ETHTLE4X+WW3-ETHTLE4X+7L5,"104,504",1,34030 NW Elm Lane,Pro Teck Valuation Services,EnergyTown,Illinois,10109-3263,CONDO,
10108/c2dbd,DFHT4KCJ+05E-DFHT4KCJ+2DW-DFHT4KCJ+Z4O,"321,284",10,66466 W Grant Alley,The Mount Vernon Company,EnergyTown,Illinois,10108-7004,RESIDENTIAL-MULTI FAMILY,1880
10103/572bc,9ACBXCEQ+R1Q-9ACBXCEQ+JYV-9ACBXCEQ+W5M,92346 sf,1,44871 SW Orange Highway,Select Office Suites,EnergyTown,Illinois,10103-7915,RESIDENTIAL-MULTI FAMILY,0
10102/fa43a,00VIIWPQ+7VE-00VIIWPQ+NNJ-00VIIWPQ+JYX,"353,085",1,11651 SW Tanoak Lane,Schmidt Real Estate,EnergyTown,Illinois,10102-7634,CONDO,
10108/6bb0c,STJ53W2M+L7F-STJ53W2M+NYA-STJ53W2M+AXO,"254,589",1,69516 NW Reagan Boulevard,Oakbrook,EnergyTown,Illinois,10108-3343,RESIDENTIAL-MULTI FAMILY,1964
10108/75473,Q03ZQMGJ+4YE-Q03ZQMGJ+FVA-Q03ZQMGJ+G9R,"242,237",1,25374 S Melon Street,ERA Sunrise Realty,EnergyTown,Illinois,10108-4399,RESIDENTIAL-MULTI FAMILY,2008
10102/971d8,1759IYLE+8U8-1759IYLE+SPR-1759IYLE+8Q7,"344,288",1,139173 N Mandarin Avenue,Keller Williams Realty,EnergyTown,Illinois,10102-9320,HOTELS/MOTELS,1961
10101/7ba4d,IQFL1ECE+EPE-IQFL1ECE+Z5Q-IQFL1ECE+KOV,"224,342",1,187329 SE Citron Lane,CWS Corporate Leasing,EnergyTown,Illinois,10101-4431,CONDO,
10108/2d867,25VYVS59+DJ3-25VYVS59+V32-25VYVS59+LRZ,"236,377",1,15581 SW Sycamore Court,Occidental Management,EnergyTown,Illinois,10108-9812,CONDO,